name,county,state,phone,email,website,address,city,zip,img_url
Sheriff Mark Pettway,Jefferson,AL,(205) 325-5700,sheriff@jeffcosheriff.org,www.jeffcosheriff.net,,,,https://doc-0g-8k-mymaps.googleusercontent.com/untrusted/hostedimage/67ht0gn364521qiheeia79564g/ulf62bslvgectsb6sqeaiop20o/1591896600000/sxIlIdZoLh4xI8i-L7KBCC7xYQoVdnSk/*/6AF2TALoA6ymPawwCZhZyfo0yx6JiYmVga0TinPLAqApM3mICNkPpM6QdgTVPEYZv-qJ74EBcMTpK_Ecx6M0C5pgaWZai7Y3AsM0NadSujhCxDQny1ZKYDWfyUny8P3Q-iqNjZ-FDTxb1uF6N2rk9ZjVVyIRAzPfY5Q8lY3CeOm4TJoLBWS0lV8iyy14GsajWw914x22x9yGia2a3QF3cymlrdF5BZ6-xx8TX3BneEBpz1GxdazCp3LL5lQJTgH7V1ruaRIF3_Pbp8UkeJaqIMj-Shya6wqg7Dg?session\\u003d0\\u0026fife\
Sheriff Mark Napier,Pima,AZ,(520) 351-4701,,www.pimasheriff.org,,,,https://doc-0o-8k-mymaps.googleusercontent.com/untrusted/hostedimage/67ht0gn364521qiheeia79564g/vfad45dgut3ic00e7lvj5komq0/1591896600000/sxIlIdZoLh4xI8i-L7KBCC7xYQoVdnSk/*/6AF2TALpOZoWMaQBszG9APmqfwURSTynlqZKeM1SESN378gr4-6fFmcb3H-pdaYVNhJ0nAPm4YLtw6EhU-E_cIciRjfhFeb-DHNPPMhrAMWyUBrjeOA217oUXO_Oy9-8GqlZdBC_vA7K_eM44J3kKNb0K5Gus0pGFjZ4Cw9hrXyYtXcNiXjxb1eAHh6vGmKCjpYbLY6GzMRs4xZQRsMhoTvJgXpWobClnLkGDxk_yUUpY_ZBdg-etvgBxjvqtrIvDxMFDne-JoHh93MD-kiy-FFRIUhXJggp7tg?session\\u003d0\\u0026fife\
Sheriff Paul Penzone,Maricopa,AZ,(602) 876-1801,,www.mcso.org,,,,https://upload.wikimedia.org/wikipedia/commons/thumb/9/9b/Paul_Penzone_by_Gage_Skidmore_2.jpg/440px-Paul_Penzone_by_Gage_Skidmore_2.jpg
Sheriff Mark Essick,Sonoma,CA,(707) 565-2781,,www.sonomasheriff.org,,,,https://doc-04-8k-mymaps.googleusercontent.com/untrusted/hostedimage/67ht0gn364521qiheeia79564g/lo1s3kp8517p3qf6q0sj1eul5c/1591896600000/sxIlIdZoLh4xI8i-L7KBCC7xYQoVdnSk/*/6AF2TALprljh_J2TRk9h8oR-b4Sn5PHK6kAbZmQlQ3CfSM5kmJt4GknKdUS_8FtQweHN2Q5Rw4nKxUoRGW0RBpazW3bNbIdZ-3XHwtZ4dSzT1MzptS8Ie_FBbElhar0E55RiWWVAf6IEFNK7hpsiwzjiFfOZS03V3fIf3zHSdyxBKu1TVgpZrX2imjrZ8LUcaZpXRWP066_Z1brFM8fkavwKWEW_3A1FWRqG2w6EMkJs6yf-N9kYNmQUBjq6FpNmeszr0i2Gp3Az2Ei1Ss6PdZ9li62jEtL3ASA?session\\u003d0\\u0026fife\
Sheriff Scott Jones,Sacramento,CA,(916) 874-7146,sheriff@sacsheriff.com,www.sacsheriff.com,,,,https://doc-00-8k-mymaps.googleusercontent.com/untrusted/hostedimage/67ht0gn364521qiheeia79564g/god0sd1cp482vlkq1ngvv9elgs/1591896600000/sxIlIdZoLh4xI8i-L7KBCC7xYQoVdnSk/*/6AF2TALrCPhUTZXmL5ZjXYlPXd8rqoHkM6ExjmQVaYP65X3dnQXrcLEesA3OSwB1Yibv70JKpx98CcxKOiDROfWie0S3YbSzwNYt615nU_lbupE0C3J-PlMmCltescVbKrZv92GW0ocm5ET1FkZcsjAJfnBpPEF98T5BPe2V-y_DIPbkkKUuquVgmnETRHaXfjfxqoUEaEwzUtCqPvs4Fa3M2h7f9MngYLM-ViLDhhXI44RDDRCxZNV8fNj72DqZloXjfU5WPv2r7g60-KC9mCDTL0LkUmrpJgA?session\\u003d0\\u0026fife\
Sheriff David Livingston,Contra Costa,CA,(925) 335-1510,dlivi@so.cccounty.us,http://www.cocosheriff.org/,,,,https://doc-0o-8k-mymaps.googleusercontent.com/untrusted/hostedimage/67ht0gn364521qiheeia79564g/aeh6k6gp41ofb7ja47iu8b05ig/1591896600000/sxIlIdZoLh4xI8i-L7KBCC7xYQoVdnSk/*/6AF2TALqaYzbheZYtgrsthpKc20lqDhpxUwpX-nebtiAjGEm5Y2sSOzEeobfQAY7UXpLfUnRtscovhFvokvYDs6i1JUxnbj0cWgTyurtI9tLSSJ39uUjXM7D6fZsxsT8S-9mfRDAArNrsfSL5ltHkJxj9KQyhULjjKPtMI8taR3tnbfE7DeTosArLzb5rEdEZF9pwx1Ww-Wzvi2mIjcOG0h56TL7j4Ix08eZ6EuWHh5ipcOCXQJe1d1V4L2agMiAq4IaXdKOb_-TzK-tntRBwKXpxEsvwIf9ivg?session\\u003d0\\u0026fife\
Sheriff Gregory Ahern,Alameda,CA,(510) 272-6866,,www.alamedacountysheriff.org,,,,https://www.alamedacountysheriff.org/pictures/SheriffAhern.jpg
Sheriff Paul Miyamoto,San Francisco,CA,(415) 554-7225,,www.sfsheriff.com,,,,https://www.sfsheriff.com/sites/default/files/styles/large/public/2020-01/Paul%20Right%202%20New_1.jpg?itok=kYSFvoY0
Sheriff Carlos Bolanos,San Mateo,CA,(650) 599-1664,,www.smcsheriff.com,,,,https://doc-0s-8k-mymaps.googleusercontent.com/untrusted/hostedimage/67ht0gn364521qiheeia79564g/cq0e0v97h3m83914sicq79dr2o/1591896600000/sxIlIdZoLh4xI8i-L7KBCC7xYQoVdnSk/*/6AF2TALrQKOEnU7lIdqtUmuoMbU0mxLF9IM7yJQ9VYt8KuaszsfImVZyf1Q5LOqYgdv-bEOr5WLTP-jYnQRMv8wOlqm9dwrdjxGhnfzgaReHNlPZfHeLhFWkqlG7Uucr3EMmCCguSbSHdXRDMtXjpvon7iKf8bOcsaYwPfr-GH0AZXsWDbMxkDMTDVJG3EBECkELnbtUzZvX5_0QKrx-RBPccqOByDctmZQF4wYrUtRCF06ZAxbAjsLJZoi8xGS6iHVxUpJg59iIzgyPzLtyQniqdPn2RlGLASg?session\\u003d0\\u0026fife\
Sheriff Laurie Smith,Santa Clara,CA,(408) 808-4900,,www.sccgov.org/sites/sheriff,,,,https://doc-14-8k-mymaps.googleusercontent.com/untrusted/hostedimage/67ht0gn364521qiheeia79564g/q2b8fjje4hlihgkq587pg208kg/1591896600000/sxIlIdZoLh4xI8i-L7KBCC7xYQoVdnSk/*/6AF2TALop5QgZraDMh7taGITaV8l8hdGIxDOuiol6TLV7WxBF9wNOeh3hMmw3rRbmk2wNBc-fmmH1qim4qLEpUZGwXlzWSZ1fSe-xx9ELipedZK6O63WIU5gMAxC5r0PoKuQo3mVzlthZla0tcSlFa6kFJ6srTT3ZNSmj8jB5f4q110g1tQgduvsT16v-LVdU1LkhZmsTemQ5mL7wcQrGYRvoGr4HcFDR45Nk5UmU-UBE-HiBX6m9dfRlnFhWWZdReyXh3RUvGsOCFflCWX8p3YfrX3ZWJ6PwQw?session\\u003d0\\u0026fife\
Sheriff Adam Jeff Dirkse,Stanislaus,CA,(209) 525-7216,news@stanislaussheriff.com,www.scsdonline.com,,,,https://doc-0g-8k-mymaps.googleusercontent.com/untrusted/hostedimage/67ht0gn364521qiheeia79564g/hic49f8na9lredcdlib4h3pqn4/1591896600000/sxIlIdZoLh4xI8i-L7KBCC7xYQoVdnSk/*/6AF2TALr6MtuoRfQOQeYoWjJHphUV-jQGnXBqSncTRDTZ6IJ5M2Rgs0VGnJIniuz-iDp2SZ-5wgZUah3w8TXMTwVHMT-MM8Ghacu09s7D0i76KxTYqfsSnzMwxDJnxDKthwu9iEXzj7eok3ixOslClVH7ZH9QTM9NNHnBWliu1dhOhiVrM8W6z1xYs41wegTxdu0vYJxXwL0aH7yB4-zSa5DgZ4JpoKOeDnyitRsIjqkRVTLhiY3Z_FRFcKJLGe4CfQiQg3_lR0I4O6bNV5G1rwui4_HGZOm35g?session\\u003d0\\u0026fife\
Sheriff Margaret Mims,Fresno,CA,(559) 488-3121,margaret.mims@fresnosheriff.org,www.fresnosheriff.org,,,,https://doc-0o-8k-mymaps.googleusercontent.com/untrusted/hostedimage/67ht0gn364521qiheeia79564g/jtnqmv8kjhbk6jf7fpc07cadv0/1591896600000/sxIlIdZoLh4xI8i-L7KBCC7xYQoVdnSk/*/6AF2TALouHhpDkItGwq8QM5poxAAqS1aEJ2lWfJ7RtywZILgDvW3M4CrS5fYldcPY-diKxb1985wlwKkPWbW6yz4s39g-KN5dGSscmTtTVZMTdfjbQJWJMiFLAaxAeVJlSrQT8u_T_TIyWgkNMzq4rM7flaP79mvtCO6F1EfxAgl-VN_gN6Ietbhx-g403z4EnOpjOtNTm6opISJmInHd2XSVmCQ_mxhBM57igff8-Q7JjpzXKMOt8P5QgViWsFSrRIviOpYLSW3EP-sD-95gZfoDOeclLSpnww?session\\u003d0\\u0026fife\
Sheriff Donny Youngblood,Kern,CA,(661) 391-7771,Sheriff@KernSheriff.com,www.kernsheriff.org,,,,https://doc-0k-8k-mymaps.googleusercontent.com/untrusted/hostedimage/67ht0gn364521qiheeia79564g/3qhrapuupbibom38fnbl49d9e8/1591896600000/sxIlIdZoLh4xI8i-L7KBCC7xYQoVdnSk/*/6AF2TALpxMT1QJ1vYpCNJ_DkRaMguJQ_wA3oSk_9JkKDmI--Urc6vUKA3cwJLIh3kti88BSflwejyLcLKjHnX7czMoTWbvJzexqSsODmd8iaQNJgwRE3Li-rcYnScPwsdhgudAebWxjBqALgi8yTSMP1Z_GBBjEjIR-UoBgxNau_J3DwwcAWDxft-GJ2qbGNmop7tMgzXWr5vZNz7A3pWzH1QqNFRdcUSwrr-lpoFa0RF0bJ5KGCz3p5pumlzwkgYlSLrrnqJwmyW5lePyJ4_sG8MyaFgQCnw7A?session\\u003d0\\u0026fife\
Sheriff Bill Ayub,Ventura,CA,(805) 654-2315,sheriff@ventura.org,www.vcsd.org,,,,https://doc-0k-8k-mymaps.googleusercontent.com/untrusted/hostedimage/67ht0gn364521qiheeia79564g/cn9igrsmmfs0t22eo8r0em2kfs/1591896600000/sxIlIdZoLh4xI8i-L7KBCC7xYQoVdnSk/*/6AF2TALoZoNLOYLsMdUOp76IXZ_LpRKWWu_FpWebdCX2ssxcjnfr6h-sYzfbS-t5LpfoNk2WF1BvCfq1D9OaEjI77u2q7H0lZeitdaoM5UgDWJTHsy9eNk9yDdO8adxWua5uhGWsl-iiWis3fd4wvdT_YHmcCHnvcPwJyLDrgj2mWir6bS1yJQAdijzJepXe0MaKmFo7KNCoMKA7sj6TrntIfc62KjYPYHROIijkezPZwLlLRzpQoIz1c903OnAoDaBQiMVJzWhQXjcOsd4CqU9oScjQog7n9MA?session\\u003d0\\u0026fife\
Sheriff Alex Villanueva,Los Angeles,CA,(213) 229-3000,lasd@lasd.org,https://lasd.org,,,,https://doc-00-8k-mymaps.googleusercontent.com/untrusted/hostedimage/67ht0gn364521qiheeia79564g/hkqgmqcsa5lsjsnulgrhqv89ak/1591896600000/sxIlIdZoLh4xI8i-L7KBCC7xYQoVdnSk/*/6AF2TALrdOHkyrMW7xsiM9d_yBpaLTWYYS23SkdXFC7qwJFoFNDIq_grR3Isp5ZzJ7iOv9JxYdTZ0C5BtuTJWTLXqje81CAPaf3P1-AhWoe3S8nsyP-TY3PTMR2sNCLn7NHuzi4F23oi6GxFLZ3Hjq6Pz597NnAtQW-sGZyHBdWxKPVMzscjcfw_WEtziWckNzsAK6qYVwVJpc1S9VWPJxxbhazDPECBSmQTOUyz_J3plmEVAAtrqUzbNhviOBIvG2cqlJ3Hn-KdsDW0_g6xlzzd470rvL0CQcw?session\\u003d0\\u0026fife\
Sheriff John McMahon,San Bernardino,CA,(909) 387-3400,kkesler@sbcsd.org,www.sanbernardinosheriff.org,,,,https://doc-08-8k-mymaps.googleusercontent.com/untrusted/hostedimage/67ht0gn364521qiheeia79564g/fbbbflejlnki8ksq7u5cqlvqbg/1591896600000/sxIlIdZoLh4xI8i-L7KBCC7xYQoVdnSk/*/6AF2TALr4lKR6lgjqCiQ_JRk5WyVeJbIEDIk6vhc9-sfiNIlDW9vSsZDamVtv4MarVr1jGDpeuPhnB5pZ6mwzmuw1t61k1GNKeJ9VHReKBybPUtw-GESObRBO2xN7Xoyo1dAiWq9XeVyNVIy8SwLJHYzwJ0fgJWctvyaosnWNKQTlp-d_B6j6HrJm0jTNREp8hrEc2YMBbfb2Y6YvGao65-q9Xqnrbaj39NP-8ZK92kpmN3nt3wcA4Hidm7gAjUDrto8N8qeUlC_kBS20YnVPyWK05Y4vTZit5w?session\\u003d0\\u0026fife\
Sheriff- Coroner Chad Bianco,Riverside,CA,(951) 955-2400,webmgr@riversidesheriff.org,www.riversidesheriff.org,,,,https://doc-0s-8k-mymaps.googleusercontent.com/untrusted/hostedimage/67ht0gn364521qiheeia79564g/auvjr5bs88tkrevqr1so6433s0/1591896600000/sxIlIdZoLh4xI8i-L7KBCC7xYQoVdnSk/*/6AF2TALpn4Omd5zbaprKzKJumpFCJtLbK8_2TJtVxzKiPqOMLdQlZvmMlZtrLRzVIKAUmGf9S7lXyYGtsOQmfz7bCyTlbk_dAPShdVRJYrconHvU-KGCsb3_WuoTGswDrk-82amcCOsU2Gz0Za-YdqI_mfqWYdfWZQYZ0XqZQXfXw-dh18OBnmejFsEJobNLZIzz0HKxS9bKCHmwIO0i7ZhMtyQhM6w0mqNiMfUTtBFEgHnxLD_TwB9kaxJoNQso3S98v9wUEW-1ibxvnrK3zf6PNBWnVOx7DkQ?session\\u003d0\\u0026fife\
Sheriff-Coroner Don Barnes,Orange,CA,(714) 647-1800,,www.ocsd.org,,,,https://www.ocsd.org/images/sheriff/command/executive/SheriffBarnes_Uniform72DPI_1.jpg
Sheriff William Gore,San Diego,CA,(858) 974-2240,bill.gore@sdsheriff.org,www.sdsheriff.net,,,,https://doc-0k-8k-mymaps.googleusercontent.com/untrusted/hostedimage/67ht0gn364521qiheeia79564g/nnkenj9ieqcll23m3ulv6g4drc/1591896600000/sxIlIdZoLh4xI8i-L7KBCC7xYQoVdnSk/*/6AF2TALo0S4L3QpE5xbqSj3_X78gDx4aH6bE-lqFGuDsGnf2-0n9mqITEjnpqoVs6sHkbA2-u9WYR_KwL_UAMKIXITmUgXQhY4qC9siDkLVE-ScCsgRBomfJlZgEgkFBowl6xURxR6edJVKyvRtZ3mP7XFwVAZx5N4IR5n5Qxx4_ZCqziaYZG0786SIXQOssDk4Bm7GzuLTCBC-mG8R-IMptTxgKC6ZWXZvOKcRJS_7K_h_O4xQrv5H2MFVSG7Fo6-WWyN2pU5aUGLK4JxZcc2GZHbYATAsS43w?session\\u003d0\\u0026fife\
Sheriff Jeff Shrader,Jefferson,CO,(303) 271-5305,sheriff@jeffco.us,www.jeffcosheriff.com,,,,https://doc-0s-8k-mymaps.googleusercontent.com/untrusted/hostedimage/67ht0gn364521qiheeia79564g/ela0fhqcpjjl8b2em69gdh6pqc/1591896600000/sxIlIdZoLh4xI8i-L7KBCC7xYQoVdnSk/*/6AF2TALouZeZ7DsJtdAbh6eTLR7iD_BqIo7Z2k8I1WZZYf730iZuy8AjfZww08tpDzS-z_wlZ2wsxpBsY8QzbYdYXFhL538uVkkm6IcLE4gzxMdxRD2M-IY0OVEJLS-ujwRvl21txtptSRb417EwvswHKkDI4d_qB_ev3ZPfK8_0L39yECEPJdHs-zzgo6OeCqJ-ZNGOxtrWIZhQNgXp2g8UiUk7WBws9iNXZ_C1VOD9Z5wLhfbcVeOUM2DNcyrxakhlUZQ_VuHcYzQw54Cn2JNp9k8n9REFFkA?session\\u003d0\\u0026fife\
Sheriff Patrick Firman,Denver,CO,(720) 337-0094,,www.denvergov.org/sheriff,PO Box 1108,Denver,80201-1108,https://doc-0k-8k-mymaps.googleusercontent.com/untrusted/hostedimage/67ht0gn364521qiheeia79564g/7kd7opkc3ekujd8vnfb63brbe8/1591896600000/sxIlIdZoLh4xI8i-L7KBCC7xYQoVdnSk/*/6AF2TALphXRVIN_r0ub8MQjLDdjRFV9ax68gTeXi97oQlrQVmlvf1SaribIcW7uOrgJZZiVd9SKC2elKQEVjXqKh0zg8ajdg2ge8TxpoFiSJt2_-EFfNSwxEt3ln2kJ3HJ8S23HwTtlYrH4ZLS1wC5jMacFhO5lDWla0lIkdxEmuTcyfeQQU68K0Mjx4W_cAUkz_07GNtOuBojosqc6Tm0zSbEt04OWtb_fIDkdOj57uCfo6hp0C2mand36AqMwdhe3BAf3HzjGoL31ph13GvRwELuTxLZ2LFUw?session\\u003d0\\u0026fife\
Sheriff Tyler Brown,Arapahoe,CO,(720) 874-4176,sheriff@arapahoegov.com,www.arapahoesheriff.org,,,,https://doc-0s-8k-mymaps.googleusercontent.com/untrusted/hostedimage/67ht0gn364521qiheeia79564g/51kt51lqce41jlf3q7vthkghno/1591896600000/sxIlIdZoLh4xI8i-L7KBCC7xYQoVdnSk/*/6AF2TALrkL2HwRTb0FtfgbSq9MoegEEOelvvoNU6mXw_XHJE2a1r9PTJP5WLtQsxI2LUTJW6qSTdZ19bLClUO1U3_wgD9Yej_-Xg946EPaHwZwx0IsD2qzuaQyNjKNcAYxqcXGKLOn-5vyw-aQPOO8JIBRfvGo7eNEvJo9AqY4iQ8hdGrrUwyUtCtZpVmJgYXU0aYfAO9D15AoF4vB0iRkYykCU7reAcXgKJwjZ19vSYpy0-BSqsn0asg8sbQ7wKUcnTLLXs56TuMtB8JWFJxp3OelImRuSyCag?session\\u003d0\\u0026fife\
Sheriff Mike Williams,Duval,FL,(904) 630-2120,joanne.seach@jaxsheriff.org,www.jaxsheriff.org,,,,https://doc-0o-8k-mymaps.googleusercontent.com/untrusted/hostedimage/67ht0gn364521qiheeia79564g/cju4nj2mp21mekg9oaf6c2conk/1591896600000/sxIlIdZoLh4xI8i-L7KBCC7xYQoVdnSk/*/6AF2TALohPEYSspRfBxQjgB8MN6xASYwYIUP1qZDVq7L01kobfOLL60YsGW7ev0SLU_opX85eyHuV5RopHxvKmybFoe4Z4auHxp8VG0OaFv7-ne5kQpBEzONY726dvNXsdBHjiGG_yi2LAKKvyY9PQwKhUfk8TqcuQbPhbVsdzN4eZBCwONQCuJMpK334br6tnt-w6GdMG2kCgf73b-SYzckvDfdGwhPJmArnnOM6o9y3s63ssLxqV10f8cRFwG1XDKJ9uAejlzyWX_ooJ1ZbdoelmPaNY40yuQ?session\\u003d0\\u0026fife\
Sheriff Wayne Ivey,Brevard,FL,(321) 264-5201,sheriff@bcso.us,www.brevardsheriff.com,,,,https://doc-0s-8k-mymaps.googleusercontent.com/untrusted/hostedimage/67ht0gn364521qiheeia79564g/59jaorl4uv4cirgv0gdkf6pans/1591896600000/sxIlIdZoLh4xI8i-L7KBCC7xYQoVdnSk/*/6AF2TALpnoa6coQv1jYx2woGx3_c6chV0GqodR8_HivCc4R2fgdF6JKCn0IAhk9ah3_xv7SREzYJlqU1DOfvJSOE5NT0RlfnZAOmKcwUw91zphzZ6J8kFfCPMHAbcYvHRavanHbUsCqkkHEmJENgryVXUH-G8FIh1fBg4U5JN2D7OfJLsSMO_Ce-0jINfqSon-oCcwu3z4i4VNQyTHjf_a1JLKqjUtOagcin22jhPsTEeM00AH55-57l_PNgIihDjR3ayzVRqv0DyE729aIIzOE8m0N-0wlaO1A?session\\u003d0\\u0026fife\
Sheriff Michael Chitwood,Volusia,FL,(386) 736-5961,,www.volusiasheriff.org,,,,https://doc-14-8k-mymaps.googleusercontent.com/untrusted/hostedimage/67ht0gn364521qiheeia79564g/bsoc3gkat1fepdp1nklio72v64/1591896600000/sxIlIdZoLh4xI8i-L7KBCC7xYQoVdnSk/*/6AF2TALrUBpjxNc881UZN7Ee_IubTwwen-3PuqJ5_JX_SE5ZDwrL-afIl4ByjImjkJbZOqQ3VNioiHr6BdYEeG8MNMOag1ux_lswAKdJxVuL6_Erctc0-nG95LkFK1pubQVbBqOF1CCFjd3UTQq6OkPh5ZhmNhafE4ZJLp-s-Fat_iP0WmaE28bc53UAFYjNNpJ9YfoyfTTFDCyb8dw5G70dP8Vuoba_232j8zPtivYsjHNVnRyS7-rYxTPjGCDDQSrQkpdrJWkfNWR91C_-XwyVIgDworrICSg?session\\u003d0\\u0026fife\
Sheriff Dennis Lemma,Seminole,FL,(407) 665-6635,sheriff@seminolesheriff.org,www.seminolesheriff.org,,,,https://doc-0k-8k-mymaps.googleusercontent.com/untrusted/hostedimage/67ht0gn364521qiheeia79564g/2c01fedka58005q8uhs1ia63fg/1591896600000/sxIlIdZoLh4xI8i-L7KBCC7xYQoVdnSk/*/6AF2TALrsJ_VSBx5lXHKtQS7kjW6MUG59PHgQzOpIpPV3DCK2kv6vVktfOD7J2QA7h_VxvmurytaE_jqV-EaAG2Ym6bXhC6wcmPSGfJk4frHllJjj0YardvnpM6oJWPh4hm5Dwm1ZG1Ji8VA8xLExxnutCepImt-WtvIvTea7b2gll7URkutL5euG5R-8VH_ul8CqvLGqOf6_LyKceSbMdVHOHxgLRlWdAZRHEFfKNvwG_M9FtInhcnl9pMRHITVyGDUWDwO4PSbmnQ5IOLFhh32LOCy6s4bPag?session\\u003d0\\u0026fife\
Sheriff John Mina,Orange,FL,(407) 254-7018,jerry.demings@ocfl.net,www.ocso.com,PO Box 1440,Orlando,32804-1440,https://doc-14-8k-mymaps.googleusercontent.com/untrusted/hostedimage/67ht0gn364521qiheeia79564g/vsgnr2okggt5tigoj81guta17s/1591896600000/sxIlIdZoLh4xI8i-L7KBCC7xYQoVdnSk/*/6AF2TALrJ3y4i8a5JKR9vJwfJZDMgT-kHbpp5rnw9OOvva9l9GlFRwKGsKN6wTiWqvtFoHod2EH8X3OTtNb0U6kQJF5GTObmrz2N7Of9NRnUADQvbkOLqlZg4n-4zKuazy-uG29HooROQRmv2kMyD5FxNKmNGPzTbPoYdS7ky96_Eqj4q_7m9-_e1TPNqLVNXCzpXLM9lb8LLN_Ehf4bSlrA6tZ0ydO8h1ZwYUTXD2sBvwXH0ODTGYHQlJWbn5O_GTq6KsGEP3zK_qLnGhXPEnPJaeJm4jY8XNQ?session\\u003d0\\u0026fife\
Sheriff Grady Judd,Polk,FL,(863) 298-6647,gjudd@polksheriff.org,www.polksheriff.org,,,,https://doc-10-8k-mymaps.googleusercontent.com/untrusted/hostedimage/67ht0gn364521qiheeia79564g/9f36ugmsst397mu3e8nbqjrodg/1591896600000/sxIlIdZoLh4xI8i-L7KBCC7xYQoVdnSk/*/6AF2TALpqcTu4ZAog7i6o2xZtOQAiLfKYkj_7qCVzw4TPsooT85tFc99z14YGjyRdrXznKV3ai6T3Pa7GG2Tyc8AobXncBgkgi8aRZKcp7eq43LLAgvcPDfrJ43ocpQzxM7qsHrAhiZFlZv7UQl2ELqALgYGLdGqpYT42Zgz_BjwNCXFg1uq24BQhuBWRq7NXi6nwubSXn6w_rVAgi04cdEv1mqltzQ8vRTmxBUMMXOOI2BvhgGyy3MiFEA5v_NJYA0SUoyX9pKBA2iH5FVPSe0zKxUl0_bq4bw?session\\u003d0\\u0026fife\
Sheriff Christopher Nocco,Pasco,FL,(727) 844-7700,mspreadbury@pascosheriff.org,www.pascosheriff.com,,,,https://doc-0c-8k-mymaps.googleusercontent.com/untrusted/hostedimage/67ht0gn364521qiheeia79564g/vnv4lc4aqqhqdkbhsneihcsv6s/1591896600000/sxIlIdZoLh4xI8i-L7KBCC7xYQoVdnSk/*/6AF2TALqpMENYkjx9RalW2SWyGKjJq5nVYik9K55ZD9xqHHET_1t_QSgnw1NK8-FWeJh17RIbWq4R6QTNqYa2noFYsawo2ipfZTQutB5A0FfXM5ME4VejTO94sdCK7nbSPsA_Xv9sL7V7iFcdPkYZPR6-BzfK_a37kfaNe3KI8-B07GW5WOZXOCk0h53DA-3ILlDsohGVikQ4xoykOoJhkdYR3ErwHQPkcR-dFkwGMULTgFgCKmxyuY5XwkDwERRsWgU6IoT5fNVpazZKobYncy6H9fS6lrT7EA?session\\u003d0\\u0026fife\
Sheriff Chad Chronister,Hillsborough,FL,(813) 247-8000,cchronis@hcso.tampa.fl.us,www.hcso.tampa.fl.us,PO Box 3371,Tampa,33601-3371,https://doc-10-8k-mymaps.googleusercontent.com/untrusted/hostedimage/67ht0gn364521qiheeia79564g/eeceu9u2rqi1eq2ql7k2ss9tnk/1591896600000/sxIlIdZoLh4xI8i-L7KBCC7xYQoVdnSk/*/6AF2TALoI4frH7mgHwp3kL4fOBRHyJHn7vQGaJUSvWUsbBhgxFYwMO7sIF3W_5bIVySI3k1Ve_5hZhaiIxqzpF8q4CP5DaRyZEhmsReyzAY94bzpE5Xz32b36jT9cWutJ2dGJCcN52h5He1SCWyk39fwUpwUI4i0lbuNtlzbCi3Q1ZFy-k-67_MGZHFszF-sz7FfR5KLOS94XY9v8pk8OVp_9zUC9ecImb6UMvlvoEX6jprhisq93dPfBBx--usfhQkZr8ZhqbpIaz6iUpMd_BpphT060-N9DvQ?session\\u003d0\\u0026fife\
Sheriff Bob Gualtieri,Pinellas,FL,(727) 582-6206,rgualtieri@pcsonet.com,www.pcsoweb.com,,,,https://doc-0s-8k-mymaps.googleusercontent.com/untrusted/hostedimage/67ht0gn364521qiheeia79564g/k4dg6j3rh299j37bfnr25di3ug/1591896600000/sxIlIdZoLh4xI8i-L7KBCC7xYQoVdnSk/*/6AF2TALrwdN-w3IPw_943rcvrmjocY2IqtW2lFJeFfhqShiYct4F4bcEz6ZwWZHFa3Mlmu69BSlNQs6v6SV0s_PSIp_d7iSY_IrsnJKMf7FRnB5YYet57iOh-3KHGD3IsZm5oTzvl61YesAppYfFTU-HeR01s7VRXXOI4_8dU4ukCc1rzXiqlTMEBCS24HV0dnX31yCV8lQ7Pnqwe_g0fhhvaTcMuKRqxEc8Obj1ZWJFGpS9d4-2EF2E4Eh2mWTdkuxkpJ0hfquDh6GLd2YGeX2Lfpd_CqcqhBg?session\\u003d0\\u0026fife\
Sheriff Thomas Knight,Sarasota,FL,(941) 861-4008,srq@scgov.net,www.sarasotasheriff.org,PO Box 4115,Sarasota,34230-4115,https://doc-14-8k-mymaps.googleusercontent.com/untrusted/hostedimage/67ht0gn364521qiheeia79564g/c76ndj9j8hpe0t6nvheec4n9jo/1591896600000/sxIlIdZoLh4xI8i-L7KBCC7xYQoVdnSk/*/6AF2TALpF4UfEwAhTjHhspzWy9HOuSr9ELHgpwcXY-r39BqMfZ-lz9QsRCSHD5m9I8kebFMrVwS-AojDb7rV6GTKzFGfsad48qJBw_tNMJLZbjtQ6n8FuVtdb9d72JqMZzwcwEGhygDbv-ygVMOK5nb1T2L5eZ7VoYOQgg_BpV5YBQAdRBCRDNHWOL2HdsYrlMAQyCXxjOH6HDucRI42hrrZ37o-5Xy7Ag5kiWoMAOm3mpDbf9lc_i2gME5Rr2PukTB5sBPsm_vh6w2EINePbmcfzwUE4AeDZ1w?session\\u003d0\\u0026fife\
Sheriff Carmine Marceno,Lee,FL,(239) 477-1000,sheriff@sheriffleefl.org,www.sheriffleefl.org,,,,https://doc-00-8k-mymaps.googleusercontent.com/untrusted/hostedimage/67ht0gn364521qiheeia79564g/prm629pvsmibv1i0bopvm0q6u4/1591896600000/sxIlIdZoLh4xI8i-L7KBCC7xYQoVdnSk/*/6AF2TALoA-Agas9q4P1ff-nFgBMIV-t9k82VsCJGcuFuUjQwWWbdMLtKtm_hX-iooJAiVqJVCumQTQFdVMZ0BWb6wNA2SgjiYhBtbnwCBvu3pByYVPsiNaq_rxjuDrOSc2GnHxWISxvlULpXwz1HaKfB5AAAnwwM5HANntKzxxXhWDpZ1zPj0TEbQKvsXBb8hGCyzZn8wBo0Y_aeTVSfHvfMRRAAJelsnShNQ2XGEFP5GULcfSjD-ZRnce5yUePvOy3IBvHkgGyp8VrO__TNs8kjooYcxg7rceg?session\\u003d0\\u0026fife\
Sheriff Ric Bradshaw,Palm Beach,FL,(561) 688-3000,,www.pbso.org,,,,https://www.pbso.org/wp-content/uploads/2015/12/Sheriff-Bradshaw-30x37.jpg
Sheriff Gregory Tony,Broward,FL,(954) 831-8901,gregory_tony@sheriff.org,www.sheriff.org,,,,https://www.sheriff.org/PublishingImages/Headshots/Tony_G.jpg
Director Juan Perez,Miami-Dade,FL,(305) 471-3272,directorsoffice@mdpd.com,www.miamidade.gov/police,,,,https://doc-0g-8k-mymaps.googleusercontent.com/untrusted/hostedimage/67ht0gn364521qiheeia79564g/felggnc4nih4cqp7kqre8doajc/1591896600000/sxIlIdZoLh4xI8i-L7KBCC7xYQoVdnSk/*/6AF2TALqMFIahNa0uIxzO7GNzIDlto34uuipNjaJS_F2nsHpd1pSG4IM8SbgDmFVIkXfvmwAHd9s73FN6iN37KkwcxEKQlfey-2i3EDCNPVDNc-eX62PoZ2E78752xiEXlwtUOv-8yqHpqecOlH2CoRkdy3QX4lSAjfLX_Rtvb3LKQO6_Ic0zlGwkDK9hs0X_KXLfH76jWrADbyXYtZjuCFwwQjlV1NXQEshiA6ixwuu3sKZ5vk0vuiKgNdbDNd2atFKehH-wnSzSKEu9DKw1blG3ycsiB2qN5A?session\\u003d0\\u0026fife\
Sheriff R. L. Butch Conway,Gwinnett,GA,(770) 822-3140,butch.conway@gwinnettcounty.com,www.gwinnettcountysheriff.com,,,,http://www.gwinnettcountysheriff.com/Content/media/images/Butch1.jpg
Sheriff Jeffrey Mann,DeKalb,GA,(404) 298-8100,,www.dekalbsheriff.org,,,,https://doc-08-8k-mymaps.googleusercontent.com/untrusted/hostedimage/67ht0gn364521qiheeia79564g/2m0rd9n36j8p9950sf6q3ndsts/1591896600000/sxIlIdZoLh4xI8i-L7KBCC7xYQoVdnSk/*/6AF2TALrZQEFYxEfESCFgG3QIZ5yM0rqJ5DvcwSmcdnxWzgDDo9B_R0KWbpOU9iMwg9D5hmjENznbQCCVVdksG2ZcN-bOmbkAg8JYcQNL5U8fBJyYbhdktw9orU1aLuwb_9MqK1-6IzmtkmFudFmeLuM4G3XVJwTPg4yq3-Xtl8KAU04AwduFKSjSiBsH1XhfHcHbJb8xvmxunRyLTJIx_n2Rz42qNQgXcFVbrwq3gEDSx4Qwz-Z7PX9jx9okoNIekDrQBaq-GVAlAoA3h4GNzCHmd9hZpo3UqQ?session\\u003d0\\u0026fife\
Sheriff Ted Jackson,Fulton,GA,(404) 612-5100,,www.fultoncountysheriff.org,,,,https://doc-14-8k-mymaps.googleusercontent.com/untrusted/hostedimage/67ht0gn364521qiheeia79564g/ieg4rur2c695dke2ed5f62f11k/1591896600000/sxIlIdZoLh4xI8i-L7KBCC7xYQoVdnSk/*/6AF2TALomx9XNlhvxcB4Yqq3UbVLABAZ8GjHmLEo2zTeSa5t9QAfwI-TqGW1c8QXqgreDExIJbW840vYyMqHBEzc1bYfg0eg41e2cVEDKE3DwcO89uuzbgZ6uXTKWa9CBQt4PPrvgyHlNaDjU11Q92MwQ6z4P5GctvbyKN5ezzfKWwjEvexjpq-1CFjzgp0qFkRlIDqt2zcfa7BDQR1fuxmY8m9akgrHlj1wi2plOR2wnyLE6FchACW1sRJoJzV00FErasIM1oYm-7vPKNbk3FEQ6eXynh9wNag?session\\u003d0\\u0026fife\
Sheriff Thomas Dart,Cook,IL,(312) 603-6444,,www.cookcountysheriff.org,,,,https://www.cookcountysheriff.org/wp-content/uploads/2017/07/AssociatedPress.Craigslist.jpg
Sheriff John Idleburg,Lake,IL,(847) 377-4208,sheriff@lakecountyil.gov,www.lakecountyil.gov,,,,https://doc-10-8k-mymaps.googleusercontent.com/untrusted/hostedimage/67ht0gn364521qiheeia79564g/7uoc14dgngvlcacdq2v3309eqs/1591896600000/sxIlIdZoLh4xI8i-L7KBCC7xYQoVdnSk/*/6AF2TALrahOjT-H6_sc9jFf-yl00vvuR2LD9QO9JDLnS6BYxmcGFMLWLAoXKkTkR7oA5iz0AyU_vjMWzZOSqvmKc6gKZgKAvYGCvbHoIhRSXSoZkxwP2jfgEmoFSKYT3xM6FdY_Po8skpSeXPVH1_FyT6UWFcxoxfItQ3P8h0JHz5Zm1GyeG0iIuFzohfP1My8_ho5PD9xHpVQV8kCyWqPjkhK41-GENv8bsr0vM33hvyKppDTMcALY7RUhrdZ5a4oGHpgwgE5Xj5pzsoIUyJhfHpBsO9FdHb3g?session\\u003d0\\u0026fife\
Sheriff Kerry Forestal,Marion,IN,(317) 327-1310,,www.indy.gov/eGov/County/MCSD/Pages/home.aspx,,,,https://doc-14-8k-mymaps.googleusercontent.com/untrusted/hostedimage/67ht0gn364521qiheeia79564g/piik6va4f9dc0pr3ha5ghl6nic/1591896600000/sxIlIdZoLh4xI8i-L7KBCC7xYQoVdnSk/*/6AF2TALpZrNnax51Apk9NSRB429iCsEO6lIDi6opgOqng8ngf8-fWcR1ODcTQH-AuohAy03_Nsa22VEoSAPRd3yIvUsjTvL6y_YccdcxD3iQDFRY_O4zg_VKYJhcut6pweHuRd1ug_D4VT1PyyY1nPwFciWJ5VyBIUkHA2mYcHtPxvd1KYrnQQq8hFXC1SkGyd1Exm-un1lCbD4Jl4ZrHKLep8ycSpJ4RebVhnJK7nyPHbcI3SN5FrvN9o2Yf-o-ipoKq8Szks5hjiH2Ja_a8Lvef6y6o7jGcPg?session\\u003d0\\u0026fife\
Sheriff Calvin Hayden,Johnson,KS,,SHR-webmaster@jocogov.org,www.jocogov.org/dept/sheriff/home,,,,https://doc-0k-8k-mymaps.googleusercontent.com/untrusted/hostedimage/67ht0gn364521qiheeia79564g/5tjiclf85k2o14fch0fbat24k0/1591896600000/sxIlIdZoLh4xI8i-L7KBCC7xYQoVdnSk/*/6AF2TALrqnaoAM5RqDoMa5ieGmiuF03MPWTVHmG62d1JpN7efML5-Z78EHu5NYteyPprk2W2y7RyJIEUY6hy-5WQCtzPejzUt1kc4ISZfUh1LW88sguEigf7UBYffvKel3AUEl4-HI_ez14uoBRRXWH386xUG5nUw_VT_iXteMSTW47SxoCCPZQ13FLVRA4dV_Cde6a4XDFLe1QmcirITmVoVjXu5tX2-S5F3TNbn8tTzpQd-EL_SjdkleFmxrAGFbcT6KBzhlEZoWF3WY45UntACf-7O-DdSfQ?session\\u003d0\\u0026fife\
Sheriff John Aubrey,Jefferson,KY,(502) 552-0631,,www.jcosky.org,,,,https://doc-0g-8k-mymaps.googleusercontent.com/untrusted/hostedimage/67ht0gn364521qiheeia79564g/fu3935naqp9m0qvn9g8krse5cs/1591896600000/sxIlIdZoLh4xI8i-L7KBCC7xYQoVdnSk/*/6AF2TALqv-Pyo4_UrxzkW6yHjCPj9LQdOGoPqi2qOuk-IbtvIA3pCa4mnBdkTgEByM24sUzs2j4LALFFHRKVA4q8XdWMctZ9_Qu0TCoUY5kFRdALIyae1HIayc86tV8JD-ZpMj4vZgu1OW4u9t3JSS1QwnI0tkN4SAXX8634bnfgpsgE9H2RAp7S_mJLgMVX3pA-AsEOejKQSYX-gmqgZY22bynALF_3ob9W2MENOuo-lB1Xp6qsw8L_Lzvi9-Zw-BJyG-0cgeffTyX5HvPXkP5kCm-bk3h1OwA?session\\u003d0\\u0026fife\
Sheriff Sid Gautreaux,East Baton Rouge,LA,(225) 389-5055,,www.ebrso.org,PO Box 3277,Baton Rouge,70821-3277,https://doc-10-8k-mymaps.googleusercontent.com/untrusted/hostedimage/67ht0gn364521qiheeia79564g/hbkqqbr6intu3n02b5sgcgipks/1591896600000/sxIlIdZoLh4xI8i-L7KBCC7xYQoVdnSk/*/6AF2TALodANkoAxbIL4X4xpDmYQpLJU8pPt6qe7KTQKD9PI5WHN4b2btweZ7xC_2wxO6qAVHBV5w-jpK4E3wE55VH3RkUvteqGJdr0iQN2Sr8hF0DhnD5LHvZWiEiFRdAX8M-p58ocjIh3fn7y11yVr1urjGxVChF29AlaD4nSMCwl7V1ZDrRqTCPj8Jc_RKu9xwQkKWmTiyNZxmKNNdrI9LBvzgZIsAeAnPLNHTlZZlF3-thAK5w54ZZlv9msQkDe6VS-WrYlyvyqY7tz1iJ-ElioF-EKHO1NQ?session\\u003d0\\u0026fife\
Sheriff Randy Smith,St. Tammany,LA,(985) 809-8200,,www.stpso.com,PO Box 1120,Covington,70434-1120,https://doc-14-8k-mymaps.googleusercontent.com/untrusted/hostedimage/67ht0gn364521qiheeia79564g/3b8nric571o7dm4rec3s0v5p84/1591896600000/sxIlIdZoLh4xI8i-L7KBCC7xYQoVdnSk/*/6AF2TALrVkrsiOH0-Ub3A-pX1cMjGARMBzhBXGgSGQW4FD8VoMpmc4VDfX1g_qAhEimMojei78WC9QOwF2nO_AAEvLt1tUIL8NC9fKAxruF0K5B1bzP5kVvWxa-EhlmOR6nUUe24umybGTXhaFlP-l9r27X0ZKui9zhJkMAAxCCvwHx7bnTE8Mja-ryQRrLCdzvgrOZwzfZt8FlcoNX47mQjbl6dCA512Ejvs6kcit0_Fm26wfbnjxi0xH8KKOtojg_yIxZs7n2JN9-n5MYwhWyBeiSTpCBcj5g?session\\u003d0\\u0026fife\
Sheriff Joseph Lopinto,Jefferson,LA,(504) 363-5701,sheriff@jpso.com,www.jpso.com,,,,https://doc-0c-8k-mymaps.googleusercontent.com/untrusted/hostedimage/67ht0gn364521qiheeia79564g/vgt2d7p8h6bfvcl9rc6r730fl0/1591896600000/sxIlIdZoLh4xI8i-L7KBCC7xYQoVdnSk/*/6AF2TALoout9zqhwDiF-etY1q6hR0wJfRUKTkUmYY_VKqoZdSRt1G0ADHwZKrBHtOrnL5ou5S5iVrA_Nb0jNZ4RDEeuOe0P31IFs6RaI03rF8pCk8IPZg0P-WtWJwtEqtYXnrrrTzAB5yUcdy-pwwX3cfQMv3tp3dbNxREk0MwX6gITqssWT-d1S9JmNubrE4_MzDFBm3p9KFXjGIglI1mN9-hf22UujUN94FgEqH9pePzwmCZUB_-8ZKuKIWc0m0Q2Fe4Q39wn38RsDID45z--Fdco3ORmHDKA?session\\u003d0\\u0026fife\
Sheriff Kevin Coppinger,Essex,MA,(508) 527-2077,,www.mass.gov/essexsheriff,PO Box 924,Newburyport,104,https://www.essexsheriffma.org/sites/essexcountysheriff/files/styles/group_main_image/public/departments/sheriff.jpg?itok=mHxbK5Ug
High Sheriff Peter Koutoujian,Middlesex,MA,(781) 960-2800,pjkoutoujian@sdm.state.ma.us,www.middlesexsheriff.com,,,,https://doc-08-8k-mymaps.googleusercontent.com/untrusted/hostedimage/67ht0gn364521qiheeia79564g/33e16n6onoh2gllmubon2288s4/1591896600000/sxIlIdZoLh4xI8i-L7KBCC7xYQoVdnSk/*/6AF2TALqjepqr8n9LSbswUZnVchiUDXuJqBc6K-w-xP7bsy1MfYq9P9CuDZY04yGVFc6NTureCZnwo_DmsND8qkS7lj710FO8zrWbnQoQuDoJqwPQi9NN7TznaFAPzd2lVg3hvLnWpQQ69Rz5fDPG6NUcpm9Ztwkqpio7jZggN41n8jI7rplHp-UaZntxiRlWyiZVJAWLA9jVOjc8m9iP7q7aYNIqlwLub4RHVmrojscClQ6j4W8cOIZ-OCkq3Yh96DxSs2krNbWFUZaev9r8iazmEAVddHNBxw?session\\u003d0\\u0026fife\
Sheriff Steven Tompkins,Suffolk,MA,(617) 635-1000,info@scsdma.org,www.scsdma.org,,,,https://doc-14-8k-mymaps.googleusercontent.com/untrusted/hostedimage/67ht0gn364521qiheeia79564g/snbbibohoal5qbs46ltb51uhbg/1591896600000/sxIlIdZoLh4xI8i-L7KBCC7xYQoVdnSk/*/6AF2TALr2YZTmzU77atVffstTMW4Kben3gQMKkOE5vUTN6kpesHwTMxLIcT_lhMQeUK1Baen7hkeSjKcyaYUU5DZMsaYftNyhKvCPh-zKE3oUKDdoKtQf1rXOdgGPUbpXMvMVc0f9hwegUQN2i1TgOkbpTAOrpnV49462A42z4ZqCZPeiLRpo5MoPut7Q4nDrDuL1ZFR4upXvVV7JySUP40edAFEOjSKlYxkuGYYhgBvN_Khsx72NDAm8eVz_kLKAIjvuItWFd0C1LohfH6f7MaAm12np9B_njw?session\\u003d0\\u0026fife\
High Sheriff Jerry McDermott,Norfolk,MA,(781) 329-3706,jmcdermott@norfolksheriffma.org,www.norfolksheriff.com,PO Box 149,Dedham,2026,https://doc-0k-8k-mymaps.googleusercontent.com/untrusted/hostedimage/67ht0gn364521qiheeia79564g/tugnarc9ehq8dje81t8l4rlot0/1591896600000/sxIlIdZoLh4xI8i-L7KBCC7xYQoVdnSk/*/6AF2TALoyIQBPQjFMRlQIyOjYxin1MGLr3uauicw-GQjwKGdVddUZy5T5IipIaxPsxLJZYQs2oeL5UCHfNoAyaLXcW0XupI0-BwShFWO2t-anwsiKHCk6CIePi6G3H5JMG1-z5GNKW2pgFPH2tlDMhukCtth7DWNBOBlEXshnxDTWeoGpEbfD460jQnerTuwhvPN_Z68Rx7XQ9GW9VVQW5pnH1i8IBUyBzMkWBFkg-x3-M9evBQPeh8apdTNIKjI3UAA701C730ItWAXsxoEqcCb7b-c-LmBuBQ?session\\u003d0\\u0026fife\
Sheriff Thomas Hodgson,Bristol,MA,(508) 995-1311,,www.bcso-ma.us,,,,https://doc-0g-8k-mymaps.googleusercontent.com/untrusted/hostedimage/67ht0gn364521qiheeia79564g/crj4ivkm7skhoou0uamffubnec/1591896600000/sxIlIdZoLh4xI8i-L7KBCC7xYQoVdnSk/*/6AF2TALqbMX4Em9zIqRWKAIkH9LkXnSvhXgDmo0vwdMQgEYccWQ284kgO4STaA633gexXN2t-jQJbcSmRoEpUlQRuTyWsnAuN9juRQR0BMdbpZ39KVm_2CQny1xofiBnrGORDItZtnQRsSW4CloGqKbI4AChHHrqCSYTdNt_iWSScHMOslmHwy5DwBNOgiIO7sGSh8emM2RMRLCoPofJOO9VluTOErhhQSnfOrgWptYW7qMaOz-CAenkRvaTm0mq7BeHT_8Fa-PNPxYwoIJhmP1J7JiIA4PZaUw?session\\u003d0\\u0026fife\
Sheriff Michelle LaJoye-Young,Kent,MI,(616) 632-6100,michelle.young@kentcountymi.gov,www.accesskent.com,,,,https://doc-08-8k-mymaps.googleusercontent.com/untrusted/hostedimage/67ht0gn364521qiheeia79564g/emmogmpugtolo6s7lendg09hfc/1591896600000/sxIlIdZoLh4xI8i-L7KBCC7xYQoVdnSk/*/6AF2TALpuu-08oiURvyqseTOliZtqk1NCAsn58P9uGX2Poy1S6YpgpqhlnMxAj0WZaJQBUVFO2fVSSrYpbc342ayQ1WUTSFsLJPZcRoGYXLK0hAns3372wnsgLZchEo4fMo89-ZLdD3Uv1ih8nlTH3GmOKd6BWffDEIZ4aCTPyObWWy4I8s7ZZcYLtzokvM212K7KSm2hVq31IgstDkCcRKQzqwNqJmoJJJ_QXe9qWm0P_VkAfpaBGrWBdFdQL9hbaSdHqJWfriwgOeDckTXrWsCwil_ounyPuQ?session\\u003d0\\u0026fife\
Sheriff Michael Bouchard,Oakland,MI,(248) 858-5001,ocso@oakgov.com,www.oaklandsheriff.com,,,,https://doc-00-8k-mymaps.googleusercontent.com/untrusted/hostedimage/67ht0gn364521qiheeia79564g/4s22g746jg1ja28hpgkr4o9kjc/1591896600000/sxIlIdZoLh4xI8i-L7KBCC7xYQoVdnSk/*/6AF2TALoXc00k2WS1DsZc-ITrXMrcwmTjOJZW8PQ77srQ7wADAz1ONfrR6X3iQWtXoCXgxIv3SFDDAAXYiJW4qYUMceg0NlvO3hPv5AzW5OBg91wlTnsrNNRvQB4JxIh4UalXSwGMjiNqBmb6lkHNruMDsHL1PiwZPKBeaTrolB2IdoV6gyYPYpKPsuJLwMOV2Ca2Gj1Lh1SN1mbKm24j63u_rT6IkteRYRrjlzg1_DIcKC8433aoS-1PvmxVR43A_hWuRFTAsdqqbgTFMDjMS_VkcNUjg_6ntA?session\\u003d0\\u0026fife\
Sheriff Anthony Wickersham,Macomb,MI,(586) 307-9343,sheriff@macombsheriff.com,www.macombsherif.com,,,,https://doc-0g-8k-mymaps.googleusercontent.com/untrusted/hostedimage/67ht0gn364521qiheeia79564g/uldhllhuanbd5u95pgs4thirqo/1591896600000/sxIlIdZoLh4xI8i-L7KBCC7xYQoVdnSk/*/6AF2TALpT5S0OL4PHAkMvxisE8vBH4jYmd684f6oO3aOcOXCh4UB1a_rP6PUn12fuX178qq_jzKUTkbMzFGH0dY8pUebHDhTERJFHRssDMHkIPjjVLinKI4YSnrY_zIcxa_aIeuuOxlcb5xVxQ54Aht4u2csl8NRJkHzbSqHEbvuJvinDAWDLQZ5sXWY6oJ8MEB2vKNMPyC5we3n7qXIX7S07XAS6BABwQYINN_CZ1yFkIVuAfQYTHj1hzWz2sGZ8aFd9rxzPowsofzUbnc-yjT2mN490iB7zQw?session\\u003d0\\u0026fife\
Sheriff Benny Napoleon,Wayne,MI,(313) 224-7491,,www.sheriffconnect.com,,,,https://doc-08-8k-mymaps.googleusercontent.com/untrusted/hostedimage/67ht0gn364521qiheeia79564g/c7r26mo55bbajtg6mg7svjf0d0/1591896600000/sxIlIdZoLh4xI8i-L7KBCC7xYQoVdnSk/*/6AF2TALoYNJS2PlV2a5-Q3xAFz8g04Mwf02jot9-W--ANGRIsqjf3zOm1YPAQUc26puo5xNatP3YwJtt3Gu3Hb4zDA3mHjXyzwfK-NYdPBXl_R9i20eZOkjqEErft5RDK-3etoyM_UTyGUN7_JRQCq-tBNymu7moHZA6Fp-v2vzyyHy12MfVRu1Wyu4lENnSY47lpwqqaQiQj92ESmORHR_u-Iy0cRPR9be3a00dMjd0vrgb-XqBcsnk79FpxlxYa9yqgcyHPk3CwDitEYBz0WVfMOuA9foUH_A?session\\u003d0\\u0026fife\
Sheriff Dave Hutchinson,Hennepin,MN,(612) 348-2347,david.hutchinson@hennepin.us,www.hennepinsheriff.org,"350 S 5th St, Room 6 Courthouse",Minneapolis,55415-1316,https://doc-0c-8k-mymaps.googleusercontent.com/untrusted/hostedimage/67ht0gn364521qiheeia79564g/u32i9vpp9bn09h6lsjo72vkncs/1591896600000/sxIlIdZoLh4xI8i-L7KBCC7xYQoVdnSk/*/6AF2TALrKVCacRyE5tdGzHhuSXJD5xtH06PZRgkKAgSOvEsBfVHgB_V4e-5P_czQkYMizqex2ztsrWUO2Eg384Uw8UoLYhmwxU02ekKQCyTYpfMdbCltUlodbSFM559xJzr_Pc_7oi_kZ8qHU8TSvZhIVbzswDWnaqETxXKXU6x9FVBGaT-cg3xqq5QLrgl17iDAOUCyu5OmcoVCIuYvJ8gC0lHgiTBrTqCx0HN-XYpQ3LgQ_jydegp_DyeYEW2Bs3XdtcsuYfPHJ0uY1lSVNWVZ-CvCxrZHQpA?session\\u003d0\\u0026fife\
Sheriff Timothy Dunning,Douglas,NE,(402) 444-3578,,www.dcsheriff.info,,,,https://strongnation.s3.amazonaws.com/image/881/square_small.jpg?1507733251
Sheriff Joseph Lombardo,Clark,NV,(702) 828-3231,sheriff@lvmpd.com,www.lvmpd.com,,,,https://doc-0c-8k-mymaps.googleusercontent.com/untrusted/hostedimage/67ht0gn364521qiheeia79564g/t589p3754im5oe3o8h25fkvj9c/1591896600000/sxIlIdZoLh4xI8i-L7KBCC7xYQoVdnSk/*/6AF2TALow_nz7BG59ii3A_zCuJnCq29xApKLMopMDsHoHW3f42eL8IEOhxXCS4upv_5lQ5avpfVTiMMSUEBhBrhgZqvyr4MuHmgLsdZjylutErxAoI7A1jN5epawHPKLktlGCt-wpMT7I86uDyOyUllBfRCvfEFa9eMZo6k_ymuLcmMX2GhPFTgDniF9ImYsVYL5shtOCJH_xPRTiDMsXNS0mcnj2-JAWKJT6ML8n_10pCGY9M-qrXZgoXIHgXUCUT2gblMrUed3KTT7e-bTPGeLEx1BuuX-hbA?session\\u003d0\\u0026fife\
Sheriff Anthony Cureton,Bergen,NJ,(201) 336-3500,,www.bcsd.us/Default.aspx,,,,https://doc-0g-8k-mymaps.googleusercontent.com/untrusted/hostedimage/67ht0gn364521qiheeia79564g/pufovc8lls8ak3lbsakhlclpds/1591896600000/sxIlIdZoLh4xI8i-L7KBCC7xYQoVdnSk/*/6AF2TALqjh_I5TUJxMrhjKv9QOEk_HKubdoQx2Pv9uDcLtSzoyZZ39tLbSPmULrNx2N2_NyM0i76jTIZYlNusiLfRykxcVVLBd01hQoRRvF7kOjkTWWbv1tr8g-LGWcwD9AKQJNpRoQEFOabAHyOn09RnbyC_63daESJAo--sIy4QS5uY9TV_CeoTayXeby-rzFOTp3DLoJfWSq1glVchS8zslKngUEXWRvgNVK6gS9jpU9o57Aq5DohAVl7r4Cc6tQwCKUspTZOGt_M_lfIUg7IayRThlOgf9w?session\\u003d0\\u0026fife\
Sheriff Richard Berdnik,Passaic,PA,(973) 389-5900,,www.passaiccountysheriff.org,,,,https://doc-14-8k-mymaps.googleusercontent.com/untrusted/hostedimage/67ht0gn364521qiheeia79564g/jlgvm12jtdtkk5kdr6cccbams8/1591896600000/sxIlIdZoLh4xI8i-L7KBCC7xYQoVdnSk/*/6AF2TALoWmUZCRAoM_w7bc0Pjt7-ZwGuaVlaI0uLbYrIu_JFdeSS_CAkagoFrTqplTP1Pw3Tya13HGooEjRgWzzB3JGkFp6KEpwOfr0p6oDouwGm0mRZmktl_SrBp3Z4lcV-ECIyM2I1x00Bhyj2JG9PpGy9Njl2gF-UCokGTCGN3J44xaGzA_Fz2vc9tI6g76GLX8yKmJnzvJKqWQZT4Kle3737146UZ4TMZ0zxRX2BQlBUAYB0tQMKdpaY7C2w9IorI9jO9ziVuyyWb2_si4wXoaqncYPRqlQ?session\\u003d0\\u0026fife\
Sheriff Manuel Gonzales,Bernalillo,NM,(505) 468-7100,mxgonzales@bernco.gov,www.bernalillocountysheriff.com,,,,https://doc-0c-8k-mymaps.googleusercontent.com/untrusted/hostedimage/67ht0gn364521qiheeia79564g/lpe5geisnbv2aan51evncoiaik/1591896600000/sxIlIdZoLh4xI8i-L7KBCC7xYQoVdnSk/*/6AF2TALrWyLL7YL_obhtOg57uQzZ4igtiB3ge-_AsOrdxxesSX5b3TkCwoeV7cCEeRCkZ2H9omidY1QSf6R5iTA2awwgrb4Xjh7gLRwDwSIhMCW8K1R1jHNmfP9ZXMGCjzDKZC8j59-XVDpnQuY3as6h_ct0FETKMOpe_BwTiTI4lNSE_Fdg30S-yIEqqny3Fdwlr18bOfJuQu9nNG9VcYAkJLtDd5d8GNH5TS2aLC367aCwbj68py4g9xistHA-Ol5hNUICzNCcHCXX0oNbx5SrlKwFik7I0mQ?session\\u003d0\\u0026fife\
Sheriff Errol Toulon,Suffolk,NY,(631) 852-2205,errol.toulon@suffolkcountyny.gov,www.suffolkcountyny.gov/sheriff/Home.aspx,,,,https://doc-14-8k-mymaps.googleusercontent.com/untrusted/hostedimage/67ht0gn364521qiheeia79564g/j8oh4c5bnr8a467ev94999i1lg/1591896600000/sxIlIdZoLh4xI8i-L7KBCC7xYQoVdnSk/*/6AF2TALoEF2ybLUKdU_KNKqjLY65r_rfYH0YgSwA9U-f7mF-CWKh0EOxc4iZIYH-byOCebp1VzslYw-g5Qq1MJhRAJGt3KUc7LMsrChcxvT7mmZ4m_Bn7wlPlMcDWnScOBv-LRoBPrOrLKQ61KF6zRIiD4kSqP7GNYvY5h01fG1mvskXOWBbDSNoP51IfIelH_zmkceoK6hKN00QC7f0X7Roq2oNdqWqYjmvBV3Q9Gwgvbe1I1vSokhzaQX_h_Y9r0SXrZvBCgXQPWLEazmA5YPNPvBVfnfT0fw?session\\u003d0\\u0026fife\
Sheriff Todd Baxter,Monroe,NY,(585) 753-4178,monroecountysheriff.info,www.monroecounty.gov/sheriff,,,,https://doc-14-8k-mymaps.googleusercontent.com/untrusted/hostedimage/67ht0gn364521qiheeia79564g/3siel9tu4q8lr64qnm2fis5pp8/1591896600000/sxIlIdZoLh4xI8i-L7KBCC7xYQoVdnSk/*/6AF2TALqewp-_lth90iiw1G5GOHE5g0QWdITet3HI7zwZLvptJl8vW-Ts1YR5MOM65eNCuqOQDI72eia6shpYk2NqD0Wa8wKfQbeWGuWGgO_t1jIuVN8XEjPL6OLcNLa1dKaJ1q9BjM2yVA7mi6Pnm_3dUECozZ8kfN25Vky_ALGQSnEUE7Os27URGikviM3GEzREWaHT4Gxn_l6Ixy-1nhbDX24giZNHboxuqQmD4T29QXLSY7dvphhBSACTrN9LnzFO6MmQqM_AnZTrqwDWDVXRLoV9CFXYuw?session\\u003d0\\u0026fife\
Sheriff Garry McFadden,Mecklenburg,NC,(704) 336-2543,,www.mecksheriff.com,,,,https://doc-0c-8k-mymaps.googleusercontent.com/untrusted/hostedimage/67ht0gn364521qiheeia79564g/pusf6n8026mtd6l1tqjevgocko/1591896600000/sxIlIdZoLh4xI8i-L7KBCC7xYQoVdnSk/*/6AF2TALoAsZHDDj9GB6ZBdFHKPbDG9QpL_maEwWBElaYrYHhO5anBC23aKMmKolRT8ux8yHh235IvdHUXMiyx2NOsPBjevqVt1JNlpeiG6_kIWAclqnq5xtewPqnSW1FsnSTo7LowvPFsJQNQjzX5JTmOT4j11XqPRylw0iHaIRUgPlVpqY8me3PyVzAgFkqaIZHopVec0f3epp6oB2Eu_Mk7HJg_NZBEL3xwB7zUFNRXhuPXh9bsb3kxEOUQaLwH5z1axhmCzVJIlVdk8IPuDJCRtgU9T1TSvw?session\\u003d0\\u0026fife\
Sheriff Cliff Pinkney,Cuyahoga,OH,(216) 443-6000,cpinkney@cuyahogacounty.us,www.sheriff.cuyahogacounty.us,,,,https://doc-10-8k-mymaps.googleusercontent.com/untrusted/hostedimage/67ht0gn364521qiheeia79564g/8pn04ce834c0dv0ug72tb14va0/1591896600000/sxIlIdZoLh4xI8i-L7KBCC7xYQoVdnSk/*/6AF2TALrCiRA3rsEi5vkQcbG2PnKd0qHylOVBWkQATsSTqZHWQ9Wt8ULL7E8n1bNQ_7dDxH1v71SXJKMuIxrNW6JmyNBEKo9aTk-8T9DGoYG_QxRufKHcD2HPAi5_J52WQTLEoMICNsXcUspsoaknOPBWrjsTCsJi12_RIOb6yKzeYRugGB1SpEBHB89SDex_59IKCmMxtKfgEAdOAq6krMxp5f7eiAlfVZPFRHPT5vt1b4BwbCZP0_m8Iadeh-W--9rNQd3mrsMVTYXqlc7jFf49jtwvicTxLQ?session\\u003d0\\u0026fife\
Sheriff Steve Barry,Summit,OH,(330) 643-2111,dcarter@sheriff.summitoh.net,www.sheriff.summitoh.net,,,,https://doc-04-8k-mymaps.googleusercontent.com/untrusted/hostedimage/67ht0gn364521qiheeia79564g/4lm20bq7j0f7gbfljrkjkipikg/1591896600000/sxIlIdZoLh4xI8i-L7KBCC7xYQoVdnSk/*/6AF2TALqy6U3VBHjT46xfOlSPdY-Rmu8Dc6cKIddX_gmQns_WFi1-FSa1ZgILmnBbjKBA2-H5e0tHxu34oyy8kX20BUPxRTcM6drEfKS2kvqaVCvvpFP6X8rWd0YWlMI9QuylbeYr5ROq9Cqizn12A1-_62MS50khH4dxbcaQT_pk1BqB7HBHmudY3fwMkkXi9n7pbPTRXV9rKZY-iXjUZHgr9sM4zwa68KcDNLDnQGKIGbMDmuxxiBjR4Hdth8RJY-jhL9Xqs7x8gMsdNJfpGljhwiDYd7Gw2g?session\\u003d0\\u0026fife\
Sheriff Dallas Baldwin,Franklin,OH,(614) 525-3360,,www.sheriff.franklincountyohio.gov,373 South High St Floor 2B,Columbus,43215-4555,https://doc-10-8k-mymaps.googleusercontent.com/untrusted/hostedimage/67ht0gn364521qiheeia79564g/gi011nst9jtfhevdcktqn1fn84/1591896600000/sxIlIdZoLh4xI8i-L7KBCC7xYQoVdnSk/*/6AF2TALrMxuCG22xGPO5FCtkPbo5ZUvKr6Yf1IwuJcUSzCxCdoCm32UsewjEMysfNhEdZ7AbSgaGJo6SO9F1ocGdBruycf4AF-DupJNokid5U795_fNOh-kbLK1w05VMljG6Fp7nVmBudMsDQcrWcGcJhIIUH32CsWwPz0_OPCWPEKdYz2oVxawwwDRv9ah43usbyK0_YCqKedIjI66ZvqaE3_5mRaUPONpH9aFsZijNByNqrXuBFXS3rUPpLdkYI80opAlAj10qz1GixRTC4hAxbrT80LWqXPw?session\\u003d0\\u0026fife\
Sheriff Rob Streck,Montgomery,OH,(937) 225-4192,rsvp@mcohiosheriff.org,www.mcso.org,,,,https://doc-04-8k-mymaps.googleusercontent.com/untrusted/hostedimage/67ht0gn364521qiheeia79564g/s3018hqv0ls4he0edlng893t6s/1591896600000/sxIlIdZoLh4xI8i-L7KBCC7xYQoVdnSk/*/6AF2TALp6Qho4saWMoZygHDewrISEj6D1WFWN-FB7egoahuMiseImuROTAKKd4AgGaANQvAm2A_SPzyjTEgXhCMcpXtin3wayJr4CpoENUvLf2KsfMgpMPQ-5t9fTH_uBcNC5cfBKZciC5YdHrjHSroxM_4r11dFzhU8F0M2O4I28etU-H-VzyKxtJTeOejfxQGuYfi6aPkeVIIUaHYNOIRAZbwn20um-jD1NLxbjfvou83Zu2lNGebbfCSP7A1qOHV-3g_V0s0Y7SC4coi7V205VEBbFHDBC9w?session\\u003d0\\u0026fife\
Sheriff Vic Regalado,Tulsa,OK,(918) 596-5641,,www.tcso.org,,,,https://doc-0g-8k-mymaps.googleusercontent.com/untrusted/hostedimage/67ht0gn364521qiheeia79564g/mu13e3i6or1fa711hn8am6qnto/1591896600000/sxIlIdZoLh4xI8i-L7KBCC7xYQoVdnSk/*/6AF2TALr4sV4IQdl-Cqnc_ZHSgqLhA5rWDMv9xH3hKhg1QgXQW7P4DDL8kEchHDDJs_N-gHych_dul34gMlGEFon3ku1qIHyVmVUdEwrcLWFGq3eVDF6Rv1lzzk9YaqaA_C_oL23txaetUDgBhtLCJ6O4rdVEIKIVnyAXRpsD0quvUUpDiG6kSjVVu66sVaEKbfltUviFFrH1FIvJ2NN31byASH3KuTm-4pluJzES4aZCeC0esrA-gFx9B46nzI_NiX0kT0GPHLl59cYSF2th6JmO9BnJzQAFCA?session\\u003d0\\u0026fife\
Undersheriff P.D. Taylor,Oklahoma,OK,(405) 869-2511,,www.oklahomacounty.org/sheriff,,,,https://doc-0o-8k-mymaps.googleusercontent.com/untrusted/hostedimage/67ht0gn364521qiheeia79564g/hh9k7j4lb27bi1540208t8kpdg/1591896600000/sxIlIdZoLh4xI8i-L7KBCC7xYQoVdnSk/*/6AF2TALpgpAGrM1p2YkoJeTd1eWmARF6kSBMfymn0htlURYYfMn5v6wwE1g8fMbKSQdEzr7KR8G55Yy4AjDmd2jvBgyQRl5dnpZmSd7kzj5gkemXq7QweGt7_WA6o2TpaSgKCEFLq9M0zGVMxPWXKTImMiL6XTBOIVQvUfTHbTWAKxinJm_FX9MsX8M2E0pBLoQA0nIkSbESKm_ngiGP9xkw0k5tj4sItO5cFOqG6NGEtJ-rbNp5NHnOxvLfhXYYmkSoUPCAfZZeM5xBBNU8PdtO1ApluywIfhg?session\\u003d0\\u0026fife\
Sheriff Michael Reese,Multnomah,OR,(503) 988-4300,sheriff@mcso.us,www.mcso.us,,,,https://doc-0s-8k-mymaps.googleusercontent.com/untrusted/hostedimage/67ht0gn364521qiheeia79564g/5jla6ut9b0ruc65mraamkrhc3o/1591896600000/sxIlIdZoLh4xI8i-L7KBCC7xYQoVdnSk/*/6AF2TALrnsontp4F96CUxwyhthDkTKOwWdEYfmczlRi-nKnUG2tN_Ouo3sMIoPLDSNlWMOGLEql2UsJpHviV0jgdYbkMlcVq9HvLmUUO3SLbvfMyJ31uzm5cxp2wB40PfllgRT4HqbHHX2CJBWRv1xXq0hdwTWQ38oyZtcSG6L_sI29DlZmkZMyOCqbWpc9OaE9hUpj8qaN_d3J_9_NaekIP2P5-b5mRVu3gBUsKEQmxdwBT4jxrZEhIDsQ9oqQxtJjgsbAyWj3gpjDs7TP7b7UMVavUo2zTH-g?session\\u003d0\\u0026fife\
Sheriff William Mullen,Allegheny,PA,(412) 350-4711,wmullen@court.allegheny.pa.us,www.sheriffalleghenycounty.com,"436 Grant Street, Room 111",Pittsburgh,15219-2400,https://doc-10-8k-mymaps.googleusercontent.com/untrusted/hostedimage/67ht0gn364521qiheeia79564g/4da32dsihb391bmjtci5k9a1ns/1591896600000/sxIlIdZoLh4xI8i-L7KBCC7xYQoVdnSk/*/6AF2TALqeUWIO52hsfenuaVAiz28TR5h6UQJ-dk4RdSfsXyfWtstS7QX-R2Jnno_Fh2-4syAe3uF_z1AxuD4t2n58-Ah5JpFnLDLOZ7_KRVsFyPNCkzHE-UkmMSDErCJMPEIpEHfxW2N7EAfHtuCAJoxVcJmETXJU_RCvXgzl1Io2bMQ_gbJN4gZ0CgbryuG5GOWQxwYSmtILCnvXHY24h8aq_EaUAd6Lg37U8w3FBQWXo9QcHsiGDbkBsDS57NEiTDRGXJsRJw8hr3GmB8224OAwImTrqLuAsA?session\\u003d0\\u0026fife\
Sheriff J. Al Cannon,Charleston,SC,(843) 202-1700,,www.ccso.charlestoncounty.org,,,,https://doc-0g-8k-mymaps.googleusercontent.com/untrusted/hostedimage/67ht0gn364521qiheeia79564g/ls8n80fo0mv6d69brqv7bdkf04/1591896600000/sxIlIdZoLh4xI8i-L7KBCC7xYQoVdnSk/*/6AF2TALogbYcO7JXnYx7tg9-0dMZiM4va3VREVSrmX2bdlRuqZ07Adiz6Z7ySnETLHn7Y5ybBNWRApbK9b70UFuRrx2KfEbwn6usHzDAIlNavgJb99B4x4ZJPtWrgM08FWf2LIQS8wxejQyqh7aDMbZmdpyVXTXLT_ZBeeb44uJoy_bzmAsrCi-rG7uWm51PGmavYs-IEZ2AQH8VWgdWagGLoSc36DYM9qoyTJzW4ahIKsfaEd5GK85a5_pXxuccCaTcXs9s5MSQAokNZ-mVGhsLkBLbHd7SMEg?session\\u003d0\\u0026fife\
Sheriff Leon Lott,Richland,SC,(803) 576-3000,Sheriff@rcsd.net,www.rcsd.net,,,,https://doc-0g-8k-mymaps.googleusercontent.com/untrusted/hostedimage/67ht0gn364521qiheeia79564g/hiqlkc0rluqj94d87md4b8b9tc/1591896600000/sxIlIdZoLh4xI8i-L7KBCC7xYQoVdnSk/*/6AF2TALoaY4ycqnf4OKSTqsDaEYb1SyRZBRUCjmF01qBQv4oOvyXAXth_0q14KeyR6lo25dmaRqHDMq84RCRXciADbw20QBvMt6lQGUd-cYJzGpmhnN0o-0dlsTtWBUoTmwSjJcnDUJpehCRxAKWL7pQBwpuUWJAocHE9eS_xIKiH52AgQFF8O05nP8i6mi-9hUeOUybBh8WzzdDPEeVEOdpPqccGPzoo38WdP6vGeVj324M9QRHm1ugXRiQEN4oslLN2sLT43a6oE-xVBFggAbQDprzRejjRHg?session\\u003d0\\u0026fife\
"Sheriff Floyd Bonner, Jr.",Shelby,TN,(901) 222-5500,public-info@shelby-sheriff.org,www.shelby-sheriff.org,"201 Poplar Ave, Fl 9",Memphis,38103-1945,https://doc-04-8k-mymaps.googleusercontent.com/untrusted/hostedimage/67ht0gn364521qiheeia79564g/q9gtodsre8srkus2ireu6b8k54/1591896600000/sxIlIdZoLh4xI8i-L7KBCC7xYQoVdnSk/*/6AF2TALrZMgUdCnIL0U32_r24Gti1Y9pUwQVJ6u3MM92ihlaxnt2HSrI3AZ3MtYxJWupi_Y2ZXBXASsvH5UuSwdtSPmLLBKyUYnIqbTlRKKsjLm1VPgsxaEDzw6daZIoMy1vKTW4bVRICc09WZ9aqE6U2ELGGS9FPOefWVp5GRG_AGJQvdzi2azftwnlpr5n6QntMsxfsLLVNksBWLvXkBVYDi9PmNZgAJJh1O25ilm-LCZGz75U6rEem3qd8XkeDAbYmEE-zFg80Qemmz-Jy7ldZ14mvkClxBw?session\\u003d0\\u0026fife\
Sheriff Daron Hall,Davidson,TN,(615) 862-8166,,www.sheriff.nashville.gov,PO Box 196383,Nashville,37219-6383,https://doc-0s-8k-mymaps.googleusercontent.com/untrusted/hostedimage/67ht0gn364521qiheeia79564g/11hpohj4rfs3kosiebdgaock4s/1591896600000/sxIlIdZoLh4xI8i-L7KBCC7xYQoVdnSk/*/6AF2TALqkbmpR5SMI1VTkH6FN_3MARsTtFalR_Ytppoq2UwNUu_LK6WaTDGxyrogqeI2ceDAt7cU1hAAOj9Z8eCXoSKobhE4f2rdDjPCqLBdDfBWq84bSM8AGhnmeiAU4iLxWu4j5DQJJHsj08WfEw5v9AHhaOdgWpVd_vzjU2RCZ9SdoVaSSqRoXFcK5CIJ1JvLF9Zvy4HLM4xykN19qL6PHsFGkH_A4BjFv7A5TiZlv58ZOdvOmRaFgVH4MQy3LB2C_mBBmKZ3ewp_u56wSXDd1qkGpoTfysg?session\\u003d0\\u0026fife\
Sheriff Rosie Rivera,Salt Lake,UT,(358) 468-9900,,www.slsheriff.org,,,,https://doc-0k-8k-mymaps.googleusercontent.com/untrusted/hostedimage/67ht0gn364521qiheeia79564g/s7cmtbvse4ui5oeebn3jbku1kc/1591896600000/sxIlIdZoLh4xI8i-L7KBCC7xYQoVdnSk/*/6AF2TALrOJmw4CzZyANt-YB4qyCkXYkIft6Eq3hOusLQsmo2q18i_dnLJZmymTIUhXhLKfwPfQ_V7Va1U-G6jEo0CC69pW9iy2UeA4aDvfz6KCBsE8mV2JB2LRoGI4mbHckCZJvSyVcm16NmG32KIYIWC_UO-MPVt3hst8cWg7KXJHF-MevUj1ZnTT6nw2ggISjUVRUicrfeq8St8m6KglMHC3pFrBJvmsnfkUf7ilV0bEzTzjTV-ep5fSDm0CoZ8lP1Ytm9nDfm7il7dlAw3lz10SixVBULCHw?session\\u003d0\\u0026fife\
Sherrif Mike Chapmen,Loudoun,VA,(703) 777-0407,mike.chapmen@loudoun.gov,www.sheriff.loudoun.gov,PO Box 7200,Leesburg,20177,https://doc-10-8k-mymaps.googleusercontent.com/untrusted/hostedimage/67ht0gn364521qiheeia79564g/53tkb5h15rh7t2ibvhrf6slqf4/1591896600000/sxIlIdZoLh4xI8i-L7KBCC7xYQoVdnSk/*/6AF2TALrwCJrLZB1yjKY7PooZmzaTudPoDXP57S48Si0RSZR86dspWgBOIxDU92pfjirW_hSOQhbLV3s7URvII8Q6OwO40bJ_JcWNGu2HZ--mGtGVRSQuw2q4BuFS8vKrYwlJqOzsoTYtVZEZt_5DT3VbjdPnroTaEXbmPeQYxde80jp4IZcbYfQlh4ISMGEO6Wp5h-DlcoWL2XKg5hYTdQzyyZIq0zEVboCA78bW4Gz_FdrvWFNiIGgdyq2byWI58vKITQUuzpXKPqesRzc9QtJuldaiwaCW0w?session\\u003d0\\u0026fife\
Sheriff Stacey Kincaid,Fairfax,VA,(703) 246-3260,sheriff@fairfaxcounty.gov,www.fairfaxcounty.gov/sheriff,,,,https://doc-08-8k-mymaps.googleusercontent.com/untrusted/hostedimage/67ht0gn364521qiheeia79564g/mvjf7c32n66scai2n89a16c7to/1591896600000/sxIlIdZoLh4xI8i-L7KBCC7xYQoVdnSk/*/6AF2TALpaEk5tPCjNa5hP-q5V7HfdY95v7bt995Abm_FjZNGzao3DYCAP4A6nSbcM2PQ6wKi2_y_Ry1gzkV6PXG3x0ZW4h-DRsda3i3RilEK4imZiCIoSyP3IMMl8AP0x4vYescpD41NlD-8oPoUHlY-F5XuJZtEufgzXHciTveLqsA_bwjaedwjRN1PTBd9XgKlLLsm3bhSS8lxFa7pIE3hHtEHVFNUeC1yFRXARAc3v6XgvBLqEc3PTgPksiroh_21rOIQwenjBWeGb5w36cn8h8WBs6yGWsQ?session\\u003d0\\u0026fife\
Sheriff Paul Pastor,Pierce,WA,(253) 798-7258,PCSheriff@co.pierce.wa.us,IMG_URL: https://www.co.pierce.wa.us,,,,https://www.co.pierce.wa.us/ImageRepository/Document?documentID=65243
Sheriff Mitzi Johanknecht,King,WA,(206) 296-4155,sheriff@kingcounty.gov,www.kingcounty.gov/sheriff,,,,https://doc-0s-8k-mymaps.googleusercontent.com/untrusted/hostedimage/67ht0gn364521qiheeia79564g/fit2ueamc7391h4ps60hm1fti0/1591896600000/sxIlIdZoLh4xI8i-L7KBCC7xYQoVdnSk/*/6AF2TALoutVUicOjoQtmM2YhoDX-vTOkvgJiTE7tqetpQEmEbBCganoILBuGuuBpFUOXMsRejuGuTn4XL3fShmDqMfoan9c5y-_BgFnXqgLU87wzc6dnOLQvE4ZhI74EPuVfPh3N2XxyXNTB5ie8NmHbWLt2rkGye2pN4U71qQi2N42tazj2MrxRYX5yQTTAnngWUC5Yv0TmCtc4R6Q9Eiw4-ndEnbeKCfOw4LHVjaZcnU9Zk3lLCEXRVeRJqc8_hKNirb08m2YZ5LhHPwwRB0LqMSaJRw5xLzw?session\\u003d0\\u0026fife\
Sheriff Earnell Lucas,Milwaukee,WI,(414) 278-4766,Sheriff@Milwaukeecountywi.gov,www.mkesheriff.org,,,,https://doc-04-8k-mymaps.googleusercontent.com/untrusted/hostedimage/67ht0gn364521qiheeia79564g/4dpkfq9shobp2gbq5pmor6fis8/1591896600000/sxIlIdZoLh4xI8i-L7KBCC7xYQoVdnSk/*/6AF2TALoQiydjUfgoPnFM27TtgqBcpBR7CfqCzTEQ_M7sicm7B2D6fVsA_kEbf_z6h_b8MamibtjGyRDJp-WJ4vGSb9lGKDEMGSwvW_PJ5ZQfpVU5XXC1W7Mtnmu--sh0itjqZUfTWVuazm732BuwIXfwSO6MhimdMFzWVOdVoQPBMUAf0B3H-LxrAb75oc-R4oJx4-QMF_dkrNccNi-MgIlVKQzd6Kj-QsvTP9Yyc1jw91uJNedKJJs3tDx3bIzKCMLcmnv78xowHwDXPW-EuFRduTptEB9qLA?session\\u003d0\\u0026fife\
Sheriff David Mahoney,Dane,WI,(608) 284-6170,,www.danesheriff.com,,,,https://doc-14-8k-mymaps.googleusercontent.com/untrusted/hostedimage/67ht0gn364521qiheeia79564g/h9rknf7fcsgfjf3pd28rdes9mo/1591896600000/sxIlIdZoLh4xI8i-L7KBCC7xYQoVdnSk/*/6AF2TALofjNQCZLWupcwD7FS3p2NI9ZOfL8zLZHSvCw0wSr0z1FntrLp5M9zPLi_cAhu27RsTeendvI6_ZC09jpoxiwwehtQ5f1yGIteiUjCiBrmNBN4x-woyXb0F7Jv5H7lfs74Og1TgbmdqJZFIWZNkzDj7YCHGp14Ux-9WJiYMo0MI4Kco-TX1Uh7iOx-7B_ZQkTp6bfczW7wEDAOj004DaCSmDoYkq8h8seB6HnXrfuxkFGu-QX_PvxboAFlajGSNpKWr2fAFP1LzJ80RshV104nilHn8QA?session\\u003d0\\u0026fife\
Sheriff Richard Wiles,El Paso,TX,(915) 546-2285,sheriffpublic@epcounty.com,www.epcso.org,PO Box 125,El Paso,79938,https://doc-0s-8k-mymaps.googleusercontent.com/untrusted/hostedimage/67ht0gn364521qiheeia79564g/hd3gaukv0aotrurf5484di5krk/1591896600000/sxIlIdZoLh4xI8i-L7KBCC7xYQoVdnSk/*/6AF2TALqKmkVXXynGZ7T96oY0MUIWEWtzqfxhRoj1uvrW2LlEKgY1g1TXgGHBUYwx2ncgTrjUsKcFETCg3kuEbQ6TDBOcgTWHrHcht07z3L3ymRpgx_1Bm5lMj4en1nJPQlM4wrJv0MWmwRIgr0n2GaHK71rc52P2wzRGSjd2SSbne74hLPs3Sde0UKufolbpUyoGmxXw3BJSoLBjxT7pR-GVzvLrcDBGxjwhnkLKUcmFfMM7C4fQ7-3V-pLeagVn0DuXunVn3PAPlrt955frbICqF8fJl44xgQ?session\\u003d0\\u0026fife\
Sheriff Bill Waybourn,Tarrant,TX,(817) 884-3099,,www.access.tarrantcounty.com/en/sheriff.html,,,,https://doc-10-8k-mymaps.googleusercontent.com/untrusted/hostedimage/67ht0gn364521qiheeia79564g/6bvjqrlckeogpcmkfis7grj37g/1591896600000/sxIlIdZoLh4xI8i-L7KBCC7xYQoVdnSk/*/6AF2TALq10I8FumHePef_QL7DmjGaWEkBrV7BIRugOS-8a1BMQSZa-uJ6ZeW3V9lqWfaeLXEotIWF7JIibcy1tffvy9v8hAd9c8EOMC3GSuF1fFVCGMSLWQ_uo6R744_kiebKLmA91RvzW3C0hBhVTlrw9VlkZX7_CjmkU546JRQeJ5XTt0UwR658nf_G--CrBCRWYEUUS4mMa8Y9V8bPyV_pWh1XdxsHxDGs4wPRCEUUzyWxIZNRJn03fkf7UH8GnhUjqCSot3Yr1Vq-MUMs-DTIAdwWwR75Zw?session\\u003d0\\u0026fife\
Sherrif Marian Brown,Dallas,TX,(214) 653-3450,marian.brown@dallascounty.org,www.dallascounty.org/department/sheriff/sheriff_index.php,133 N Riverfront Blvd LB-31,Dallas,75207-4317,https://doc-08-8k-mymaps.googleusercontent.com/untrusted/hostedimage/67ht0gn364521qiheeia79564g/pr8p8njfv2mm8r70kjfnjheba4/1591896600000/sxIlIdZoLh4xI8i-L7KBCC7xYQoVdnSk/*/6AF2TALqI1idLJLP1lff8ikqqDkeyULjm4PsMFm2O41vuO_z0DKRvgaiyyNaGVxquDqiNQgAAAhU7DBjvodswQqQwDt9m1Mgxr6GbZdlSgxQATbdTjxQdNJ9whqAdMexe71eyPSZnO1_zTHh7bf2vQMF_9LugsrZ4UbQRtACM1SBs9eE5ZFy8z92CUUFJ8xYzl_f_HfmAFZzU6DbQ4gFTf95UQwTeAIaerOX5GP6geRaWLvS5VAcfecKm0y7cLllR2gMYV7QeQKcmnOx-WW4bM6oOzPQf_44FLw?session\\u003d0\\u0026fife\
Sheriff Robert Chody,Williamson,TX,(512) 943-1300,,https://www.wilco.org/sheriffs,,,,https://doc-08-8k-mymaps.googleusercontent.com/untrusted/hostedimage/67ht0gn364521qiheeia79564g/thkme4b7h8v7j6vi9sfku4arbo/1591896600000/sxIlIdZoLh4xI8i-L7KBCC7xYQoVdnSk/*/6AF2TALpI8pRIUYORatBNEp4mXohsYXoIhv8xdYPj_gWsCDOZZl8ZOHnRSwEEP-IL4ZYNWT3Cr_bHeJOYOoyU4sRUe-Os156LvesYQoY86EQSkxKkDwTejc-tEpH8e0BoSixWF3BHK8Rhjqpyj2CqOwrun4_jzyiJXQvGzX1ZBtZw__0dtj5d-NZjinFSa0qzP6bumLD7UVqm1Ckt94Qak5DNyfYLnK6aJKoEuHNjfnFnmTLMU-ewkzaUJKz7N5xJwgwoIPAq05Ad_nI1uLj7Vi80-QUrWXujqQ?session\\u003d0\\u0026fife\
Sheriff Javier Salazar,Bexar,TX,(210) 335-6133,sheriffsalazar@bexar.org,www.bexar.org/sheriff,,,,https://doc-14-8k-mymaps.googleusercontent.com/untrusted/hostedimage/67ht0gn364521qiheeia79564g/pgsc07udpndcg4mqpdu3nckd30/1591896600000/sxIlIdZoLh4xI8i-L7KBCC7xYQoVdnSk/*/6AF2TALpRVp-3iCejTd88YRh1zihK-dpdjclUYnD05zcFRRhvvLNlu2kgR9bN8jG6pP3a-t9ZUnEGuHMUd9820i0J3fGv8wikHA0UodRjcfQ8UXSLIJDcEMhcEBQeZU_xGCcvhl9Q0IyWDzFimiXRsRbdmNaSml68KXwMCX_wu9Ixu3xp8vokp7Kom8Evpr9YDMmUWPJYDCyFgiScGyaSnpeLmEaaKJm5H6mPAJ30FvfIl66LKmAPcGvK330OCQjntru-eLrHd7dSEOlWxBqyEqkMPla4TFFqow?session\\u003d0\\u0026fife\
Sheriff Ed Gonzalez,Harris,TX,(713) 755-6044,ed.gonzalez@sheriff.hctx.net,www.harriscountyso.org,,,,https://doc-0o-8k-mymaps.googleusercontent.com/untrusted/hostedimage/67ht0gn364521qiheeia79564g/64gg76e2gu7dj5datdp60tjiuc/1591896600000/sxIlIdZoLh4xI8i-L7KBCC7xYQoVdnSk/*/6AF2TALrfoPKzE6lW-O8MbvrjRwG2UOsmDLYjgERvajC0PXWPX-2kekNwbswwM2hjAlD3XMb8OfT-taRMmg6gydu8NMmdehBlqOTsvD2q7gR0HKuqltUKrjkf857uOcqpZ0jLrpXiDr7-J5Tl_wl1JryhIJ7pkhFNQrnMdnkfwZ2Q32tvQobthUMvIpZt7QL-NsKfp_XxPo3Er2qzYzpRV2qHodkHmiItCkKyeCAbczdT71JAvCrpNLfal6p3_fM0RB6zuPVsKewmZzREf4_EyqPbvlUhsyctyA?session\\u003d0\\u0026fife\
Sheriff Troy Nehls,Fort Bend,TX,(281) 341-4700,,www.fortbendcountytx.gov,,,,https://doc-14-8k-mymaps.googleusercontent.com/untrusted/hostedimage/67ht0gn364521qiheeia79564g/q6tmo1n0sm1ugib6f45uos9jes/1591896600000/sxIlIdZoLh4xI8i-L7KBCC7xYQoVdnSk/*/6AF2TALp5fsz4uINcy-A4rJBZog0ip9xvhJfSvMcJotz3BnZuU1y9CXyPigY-RESL1ANPZBIwf6kHirL4PUC1knzIfp5OHwyGhBlKMQ3NycZlCcajrggxH4P0vtQMQpvP8vSvX35V0VGp5k9TGwnYauWKMJW7FGNu_NXKxKu-cReHPMVZos-J4DEwRPzgNY5BD1Z3m2G8F5Bl_I0DmSoDIaHmy-2xx-EzVdBUgCZ7MNtcYl6bt9K6JBc84FuhYFlKUq-Z4zPYVKCBFOwSaqjy8tDDWxkatgWGvA?session\\u003d0\\u0026fife\
Sheriff Patrick Withrow,San Joaquin,CA,(209) 468-4319,,www.sjgov.org,,,,https://doc-0o-8k-mymaps.googleusercontent.com/untrusted/hostedimage/67ht0gn364521qiheeia79564g/u4ijptff63hfmgjvul5avk46m0/1591896600000/sxIlIdZoLh4xI8i-L7KBCC7xYQoVdnSk/*/6AF2TALpqJGCuqT_RDBGysxnTakpUJ2t7S4XVCdiIh-QRjYOEVPvhJoMbLJS-n90DZH2rJRwoVAfl_GTG0UmRcqOx-ph7M93mVMrBXYlKlGy_bSIw9PhrxnTe6ppSKWIhloR7uSBtl-k6lojlQNms-Itra3nBztX2PYIqCs4-b1RIrdtOx778AaSSsKfG-lkZ7jP4LIk3o7GhQ2Gt6cUHAsRFqzOdV_-oRPQlptlyT-fsdUbWogRuitTDUykXN_7Twn8E-86rShb0-yFDIQPs6takgbyFL1PZLA?session\\u003d0\\u0026fife\
Sheriff Bill Brown,Santa Barbara,CA,(805) 681-4290,,www.sbsheriff.org,,,,https://doc-0c-8k-mymaps.googleusercontent.com/untrusted/hostedimage/67ht0gn364521qiheeia79564g/rj30o2s64f3pafg3ci8jf3pvts/1591896600000/sxIlIdZoLh4xI8i-L7KBCC7xYQoVdnSk/*/6AF2TALr6jNI3p48j8bmAOi-7McgrOm0k2cHn8rN4fJrrP3cSjfNdj9kg9Mt46bnXyYumjslaZ8xbBuy6uS0W3pjDdDOuj2VzbHkDg5W2-aPfzaNfv0CBUsrZEC-qpUIEWZhhlRgwuCgKZ0JVem0jqAOzI3TacUrB-zmlRw1xgoCci0ylh-kl1rLnXJd2Cx1fyMOVVsdAhBi4Ds7je5oqTRSHn8ZDKpKKXB22nNBkl7vNEF6HjGrrYWu855XBaZCQ5C6uOVYhIKtU2v_UJty48LWqSEN9xDxXTQ?session\\u003d0\\u0026fife\
Patrick Garrett,Washington,OR,(503) 846-2505,,www.co.washington.or.us/sheriff/,,,,https://doc-0k-8k-mymaps.googleusercontent.com/untrusted/hostedimage/67ht0gn364521qiheeia79564g/39mocqm1udc0uj7sje85e2829k/1591896600000/sxIlIdZoLh4xI8i-L7KBCC7xYQoVdnSk/*/6AF2TALo-5HyVfmJ_vOB7F_R7Bc_9Rm_-euleFZTHmn9T0aIQVUITiGBGpthDI5nMAYpsvAMcReXHyhHpkGfLJrO5kwUnMqwj4bzS1wq9WWy-kOMsq6EsCP8sUBUzayyFluv135PaZ2rnzTwlMa4ViaYjQ0QZwqNM1ae8H6etnnKJGrCB8nueH5Z9H4QoYaozft2w_eLGllPGhyTIUk9WJhTbOjwsPy2VCoGUGBZNZoBmx-WDpK0pKVDuAnXQ2sexcVD3Pa3QOqErW8MjDUPj4uXkj5sFALlE6g?session\\u003d0\\u0026fife\
Sheriff Rand Henderson,Montgomery,TX,(936) 538-3457,rand.henderson@mctx.org,http://www.mctxsheriff.org/,,,,https://doc-0g-8k-mymaps.googleusercontent.com/untrusted/hostedimage/67ht0gn364521qiheeia79564g/1edcb5oieksd0ot294m7tnfgog/1591896600000/sxIlIdZoLh4xI8i-L7KBCC7xYQoVdnSk/*/6AF2TALrFiTuidzvy_oQZrCEb6dzxAiLi-5X0Td7GpZrgLM3Z_sBCHx61l4j1blvK5d3F-i7tB4uLQvboZSfqZpfoyYbYB5xpDSdKVU7uS4bJkbMA1JYxGAm7Gi6pe8qvIHGg7yG7lOAAxwwDe2vr1cO2DflMfh1kV7-BZGfbjPpAiUr9qm-33cd-JwjIxRPlTmI4NweHM5oabsznQe_VyIOOstulbu_j4mlk71fuGtZ117-_3Op0dvb6vra_A1xcQXsAzpVuBl55VCi5FT04fu1xI_knXP5nkQ?session\\u003d0\\u0026fife\
Sheriff Johnny Mack Brown,Greenville,SC,(864) 467-5300,,www.gcso.org,,,,https://doc-0s-8k-mymaps.googleusercontent.com/untrusted/hostedimage/67ht0gn364521qiheeia79564g/o4j00h4mtb33dc7kcddjn25e2c/1591896600000/sxIlIdZoLh4xI8i-L7KBCC7xYQoVdnSk/*/6AF2TALrCqzxT-fcxS-sjgFYkRLmFrURA58NnSLr2YeCYMe36Xz4FljNWhIkY_1bSmIto3vo6xHc0sgyT63i_PfekQ0cXuAVw-m7oO6zPQe-zXTnFKNqB31Ng_-h2439IaGiB2vezIQKtkBK_K9l3D77yYYuH1Nhah4vZU7r5RTcjCGJOqQPWKP1_pEv7AyaOaREwOC71rTu_iYj9QuKudZscVyftRHf1Nb4bebk5lR27-AFgBhIep7rdxmkDdpUPloGxjMLIJAQf3xWeamlUwWo4ZFS5rqj4nA?session\\u003d0\\u0026fife\
Sheriff Adam Fortney,Snohomish,WA,(425) 388-3414,contact.sheriff@snoco.org,https://snohomishcountywa.gov/210/Sheriffs-Office,,,,https://doc-08-8k-mymaps.googleusercontent.com/untrusted/hostedimage/67ht0gn364521qiheeia79564g/j7r8ra59klferclv7p87oihkt0/1591896600000/sxIlIdZoLh4xI8i-L7KBCC7xYQoVdnSk/*/6AF2TALrG3OggnnJ2uNxMylTqOHceKZaUElf8wQ70M0gJ4S8a3YLj8gwERflLXUD-TYSgp53qtX-VbHrULRzM2m8SgYSUbfrsTwMHpKHM69wR3gDAnS8I27fTPGO8VodcQ4bKfqH_OfZ3yEUK2uYMQNDuYbEReO6ys-3DWIZH6biHGohcKYhFX8aSgO2Vm7LxHtcZDWWea_BUWNlHk6xoUii97-4hqYkD0o7Fx9yECBrfA5m9Q7S8uw-ASkYu1049cnPNepSlb0i2etf6k6YIw3b9ADD5WG8_Ww?session\\u003d0\\u0026fife\
Sheriff Kevin Schneider,Polk,IA,(515) 286-3333,polkcounty.sheriff@polkcountyiowa.gov,,,,,https://www.polkcountyiowa.gov/sheriff/
"Sheriff J.E. ""Eddie"" Guerra",Hidalgo,TX,(213) 229-3000,,ttps://www.hidalgocounty.us/209/Sheriff,,,,https://doc-00-8k-mymaps.googleusercontent.com/untrusted/hostedimage/67ht0gn364521qiheeia79564g/7s2vd5skdo78cls6n911p3ikgk/1591896600000/sxIlIdZoLh4xI8i-L7KBCC7xYQoVdnSk/*/6AF2TALpuMiaNbDI6_pPofDYF8JR3dAyjmZ59U8gCzl1TZKDil6IU4p0grjr8ZySE1vukGjMfZWVWxR0f0PdJ3siNFGm9hoQbZdHwyH1uivKm7cbfa5LCu77uY-Euu8RzLQfgKaBVIURimQwnJjzLG8XrYwJmdemw__S2acsUbhNrhzN5yFowbuAqQcxfYOMoMDd6PLhFQkeh78-Ll_6OG5oFyi1cwqrkL8PTT1nGFm4O-R3pJ0351c8Afo_RitucvhX4O0P6FYqMLO7fvrVh9XtTgISpsNB7Pg?session\\u003d0\\u0026fife\
Sheriff James Mendrick,DuPage,IL,(630) 407-2000,sheriff@dupagesheriff.org,www.dupagesheriff.org/,,,,https://doc-0o-8k-mymaps.googleusercontent.com/untrusted/hostedimage/67ht0gn364521qiheeia79564g/jpr1b2msrkkhgu4nrvp511te50/1591896600000/sxIlIdZoLh4xI8i-L7KBCC7xYQoVdnSk/*/6AF2TALprHUETUtaufHs7ftGsWC7kvljj3IepbX8t8N--6dAJOL2N69NCxDYQcF4iFFHr5bP60hq7IM48OPiHnJNLFm8Yj0LiSLk2SN03OnpXm8g6NnYcnHG6meJGfO5-B250y6cWXWRBRvdNAJK_axHMHz0YOF3Qv-r9A-dVCi4fQrkMUFqZCgGtzhWRRrmRoFayDf7HfRhgyMGrlYnxvK2q-k92IeGgInhLDK27ImDVwa5WSho-GBpMQtbt5LBMe4X5I5YcyGOTnj56sLdGIZzWFOED3w6Fmg?session\\u003d0\\u0026fife\
Sheriff Jim Neil,Hamilton,CO,(513) 946-6400,jneil@sheriff.hamilton-co.org,www.hcso.org,,,,https://doc-04-8k-mymaps.googleusercontent.com/untrusted/hostedimage/67ht0gn364521qiheeia79564g/3f7v1jqb8jndii7ih5kfe4uiks/1591896600000/sxIlIdZoLh4xI8i-L7KBCC7xYQoVdnSk/*/6AF2TALoDMNpvgIgUB9XnOhNFstnOqyYxQeEMMjoA7zZCklT91-hwIq4rF4rIpzeMeUIpEzzi8iKFuH0HlrIsFiLTUm16BSYKpb3WjB2vlaaKQMlIB9EvsrhxGHGHsvZbLrMOMUL3A7nam00Zq80VVGH6PwN398blWMM4YIcIbyYfo7nkv7Px0NrcoEi3T-jVbtnuiz1-Nld-LLUmAn4At8Az0IaQA-6iKnWkG7TBSj8qgoXqPtMFNbkx__HmpWuVueypSYN03SOd2kcFAPEHFdVsTUajNnvJ4w?session\\u003d0\\u0026fife\
Sheriff Nick Cocchi,Hampden,MA,(413) 858-0000,katie.fitzgerald@SDH.state.ma.us,http://hcsdma.org,,,,http://hcsdma.org/wp-content/uploads/2017/01/Sheriff-Cocchi.jpg